HIERARCHY
ROOT spine
{
	OFFSET 0.000000 -0.016002 0.756810
	CHANNELS 6 Xposition Yposition Zposition Xrotation Yrotation Zrotation
	JOINT spine.001
	{
		OFFSET -0.000000 0.033202 0.400490
		CHANNELS 3 Xrotation Yrotation Zrotation
		JOINT spine.002
		{
			OFFSET 0.000000 -0.016800 0.135600
			CHANNELS 3 Xrotation Yrotation Zrotation
			JOINT spine.003
			{
				OFFSET 0.000000 0.005500 0.172800
				CHANNELS 3 Xrotation Yrotation Zrotation
				JOINT spine.004
				{
					OFFSET 0.000000 0.005500 0.192500
					CHANNELS 6 Xposition Yposition Zposition Xrotation Yrotation Zrotation
					End Site
					{
						OFFSET -0.002595 -0.024400 0.891066
					}
				}
				JOINT shoulder.L
				{
					OFFSET 0.018300 -0.074300 0.139400
					CHANNELS 6 Xposition Yposition Zposition Yrotation Xrotation Zrotation
					JOINT upper_arm.L
					{
						OFFSET 0.305284 0.095100 -0.022257
						CHANNELS 6 Xposition Yposition Zposition Xrotation Yrotation Zrotation
						JOINT forearm.L
						{
							OFFSET 0.317351 0.002465 -0.005579
							CHANNELS 3 Xrotation Yrotation Zrotation
							End Site
							{
								OFFSET 0.342909 -0.021500 -0.023381
							}
						}
					}
				}
				JOINT shoulder.R
				{
					OFFSET -0.018300 -0.074300 0.139400
					CHANNELS 6 Xposition Yposition Zposition Yrotation Xrotation Zrotation
					JOINT upper_arm.R
					{
						OFFSET -0.305284 0.095100 -0.022257
						CHANNELS 6 Xposition Yposition Zposition Xrotation Yrotation Zrotation
						JOINT forearm.R
						{
							OFFSET -0.317351 0.002465 -0.005579
							CHANNELS 3 Xrotation Yrotation Zrotation
							End Site
							{
								OFFSET -0.342909 -0.021500 -0.023381
							}
						}
					}
				}
			}
		}
	}
	JOINT pelvis.L
	{
		OFFSET 0.000000 0.000000 0.000000
		CHANNELS 6 Xposition Yposition Zposition Yrotation Xrotation Zrotation
		End Site
		{
			OFFSET 0.244110 -0.068027 0.028065
		}
	}
	JOINT pelvis.R
	{
		OFFSET -0.000000 0.000000 0.000000
		CHANNELS 6 Xposition Yposition Zposition Yrotation Xrotation Zrotation
		End Site
		{
			OFFSET -0.244110 -0.068027 0.028065
		}
	}
	JOINT thigh.L
	{
		OFFSET 0.247740 -0.008119 -0.056633
		CHANNELS 6 Xposition Yposition Zposition Xrotation Yrotation Zrotation
		JOINT shin.L
		{
			OFFSET -0.024108 0.002021 -0.403683
			CHANNELS 3 Xrotation Yrotation Zrotation
			End Site
			{
				OFFSET -0.001797 -0.032260 -0.352038
			}
		}
	}
	JOINT thigh.R
	{
		OFFSET -0.247740 -0.008119 -0.056633
		CHANNELS 6 Xposition Yposition Zposition Xrotation Yrotation Zrotation
		JOINT shin.R
		{
			OFFSET 0.024108 0.002021 -0.403683
			CHANNELS 3 Xrotation Yrotation Zrotation
			End Site
			{
				OFFSET 0.001797 -0.032260 -0.352038
			}
		}
	}
}
MOTION
Frames: 121
Frame Time: 0.041667
0.000000 0.088581 0.802864 0.612255 0.031316 2.928422 2.352821 -0.352898 -1.996830 -0.000001 0.000000 -0.000000 -0.000000 0.000000 -0.000000 0.000000 0.005500 0.192500 -7.070534 0.198606 -0.007264 0.018300 -0.074300 0.139400 -5.946876 -1.479351 -12.618188 0.279318 0.189649 0.011096 -2.697503 31.585353 2.403655 -2.858288 -18.002897 3.323817 -0.018300 -0.074300 0.139400 -6.472917 1.869160 -1.044804 -0.299027 -0.004385 -0.049884 -5.273156 -32.308099 0.225138 0.018019 -1.017505 -0.031699 0.000000 0.003578 0.000518 -9.046260 19.518481 0.796270 -0.000000 0.000000 -0.000000 -1.807231 0.000005 0.000470 0.240133 -0.002408 0.010506 -7.296474 -0.965693 -0.703835 7.767336 -0.964264 -0.089421 -0.266177 0.015954 0.008371 -5.724585 2.718086 -1.783453 3.198637 -0.915815 0.045266 
0.000000 0.088581 0.802864 0.612255 0.031316 2.928422 2.387758 -0.253601 -2.981566 -0.000000 -0.000000 -0.000000 -0.000000 -0.000000 0.000000 0.000000 0.005500 0.192500 -7.426315 0.180794 0.048152 0.018300 -0.074300 0.139400 -5.946876 -1.479351 -12.618187 0.279319 0.189649 0.011096 -2.635794 31.439306 2.321290 -2.888024 -17.933234 3.284652 -0.018300 -0.074300 0.139400 -6.472916 1.869160 -1.044806 -0.299027 -0.004385 -0.049884 -5.175984 -30.583244 0.578651 0.018019 -1.017505 -0.031698 0.000000 0.003578 0.000518 -9.046260 19.518481 0.796270 -0.000000 0.000000 -0.000000 -1.807231 0.000005 0.000470 0.240133 -0.002408 0.010506 -6.577303 -1.002478 -0.707123 7.767336 -0.964264 -0.089421 -0.266177 0.015954 0.008371 -6.279467 2.745765 -1.780283 3.198638 -0.915815 0.045267 
0.000000 0.088581 0.802864 0.612255 0.031316 2.928422 2.491644 0.013961 -5.667142 0.000001 0.000000 -0.000000 -0.000000 -0.000000 -0.000000 0.000000 0.005500 0.192500 -8.392497 0.130685 0.198087 0.018300 -0.074300 0.139400 -5.946876 -1.479352 -12.618191 0.279318 0.189649 0.011096 -2.451308 31.023699 2.078793 -2.974207 -17.730406 3.170992 -0.018300 -0.074300 0.139400 -6.472916 1.869160 -1.044803 -0.299028 -0.004385 -0.049884 -4.984737 -25.809977 1.596626 0.018018 -1.017504 -0.031699 0.000000 0.003578 0.000518 -9.046260 19.518481 0.796270 -0.000000 0.000000 -0.000000 -1.807231 0.000005 0.000470 0.240133 -0.002408 0.010506 -4.620470 -1.102743 -0.713730 7.767337 -0.964264 -0.089421 -0.266177 0.015954 0.008371 -7.787824 2.820829 -1.770311 3.198639 -0.915816 0.045266 
0.000000 0.088581 0.802864 0.612255 0.031316 2.928422 2.668661 0.401387 -9.654019 0.000000 -0.000000 -0.000000 0.000000 0.000000 0.000000 0.000000 0.005500 0.192500 -9.817407 0.052176 0.417655 0.018300 -0.074300 0.139400 -5.946877 -1.479352 -12.618186 0.279318 0.189649 0.011096 -2.146813 30.370849 1.684604 -3.111898 -17.403459 2.988905 -0.018300 -0.074300 0.139400 -6.472918 1.869160 -1.044802 -0.299027 -0.004385 -0.049884 -4.904924 -18.560474 3.218790 0.018020 -1.017499 -0.031698 0.000000 0.003578 0.000518 -9.046260 19.518481 0.796270 -0.000000 0.000000 -0.000000 -1.807231 0.000005 0.000470 0.240133 -0.002408 0.010506 -1.725846 -1.251326 -0.717217 7.767338 -0.964265 -0.089421 -0.266177 0.015954 0.008371 -10.015794 2.931154 -1.751972 3.198639 -0.915815 0.045266 
0.000000 0.088581 0.802864 0.612255 0.031316 2.928422 2.921012 0.856849 -14.530155 -0.000000 0.000000 -0.000000 0.000000 0.000000 -0.000001 0.000000 0.005500 0.192500 -11.548743 -0.050552 0.681772 0.018300 -0.074300 0.139400 -5.946876 -1.479351 -12.618189 0.279318 0.189649 0.011096 -1.726834 29.511646 1.148706 -3.295752 -16.961218 2.744787 -0.018300 -0.074300 0.139400 -6.472916 1.869160 -1.044808 -0.299028 -0.004385 -0.049884 -5.167941 -9.471776 5.446352 0.018018 -1.017502 -0.031697 0.000000 0.003578 0.000518 -9.046260 19.518481 0.796270 -0.000000 0.000000 -0.000000 -1.807231 0.000005 0.000470 0.240133 -0.002408 0.010506 1.801794 -1.432334 -0.711315 7.767336 -0.964265 -0.089421 -0.266177 0.015954 0.008371 -12.727243 3.064314 -1.723883 3.198638 -0.915815 0.045267 
0.000000 0.088581 0.802864 0.612255 0.031316 2.928422 3.239948 1.327995 -19.861249 -0.000001 0.000000 0.000000 -0.000000 0.000000 0.000001 0.000000 0.005500 0.192500 -13.433284 -0.171420 0.965673 0.018300 -0.074300 0.139400 -5.946877 -1.479352 -12.618187 0.279318 0.189649 0.011096 -1.196789 28.476268 0.482004 -3.520166 -16.412417 2.445252 -0.018300 -0.074300 0.139400 -6.472917 1.869161 -1.044799 -0.299028 -0.004385 -0.049884 -6.010369 0.671408 8.377237 0.018018 -1.017500 -0.031698 0.000000 0.003578 0.000518 -9.046260 19.518481 0.796270 -0.000000 0.000000 -0.000000 -1.807231 0.000005 0.000470 0.240133 -0.002408 0.010506 5.649316 -1.628909 -0.692192 7.767336 -0.964264 -0.089421 -0.266177 0.015954 0.008371 -15.682188 3.207718 -1.686128 3.198639 -0.915815 0.045266 
0.000000 0.088581 0.802864 0.612255 0.031316 2.928422 3.601369 1.767463 -25.196033 -0.000000 -0.000000 0.000001 0.000000 0.000000 0.000002 -0.000000 0.005500 0.192500 -15.317237 -0.301558 1.245452 0.018300 -0.074300 0.139400 -5.946876 -1.479351 -12.618184 0.279318 0.189649 0.011096 -0.562254 27.294768 -0.304332 -3.779416 -15.765745 2.096986 -0.018300 -0.074300 0.139400 -6.472916 1.869160 -1.044801 -0.299028 -0.004385 -0.049884 -7.676503 10.938311 12.204078 0.018019 -1.017499 -0.031698 0.000000 0.003578 0.000518 -9.046260 19.518481 0.796270 -0.000000 0.000000 -0.000000 -1.807231 0.000005 0.000470 0.240133 -0.002408 0.010506 9.497458 -1.823766 -0.659912 7.767335 -0.964264 -0.089422 -0.266177 0.015954 0.008371 -18.637756 3.348991 -1.641011 3.198636 -0.915815 0.045266 
0.000000 0.088581 0.802864 0.612255 0.031316 2.928422 3.966760 2.138631 -30.081874 -0.000000 0.000000 0.000002 0.000000 0.000000 0.000000 0.000000 0.005500 0.192500 -17.046998 -0.429127 1.498522 0.018300 -0.074300 0.139400 -5.946876 -1.479352 -12.618190 0.279318 0.189649 0.011096 0.171671 25.997510 -1.199313 -4.067757 -15.029935 1.706681 -0.018300 -0.074300 0.139400 -6.472916 1.869160 -1.044804 -0.299028 -0.004385 -0.049884 -10.400030 20.332846 17.173828 0.018018 -1.017502 -0.031698 0.000000 0.003578 0.000518 -9.046260 19.518481 0.796270 -0.000000 0.000000 -0.000000 -1.807231 0.000005 0.000470 0.240133 -0.002408 0.010506 13.026760 -2.000185 -0.618866 7.767336 -0.964264 -0.089421 -0.266177 0.015954 0.008371 -21.350902 3.476456 -1.593225 3.198636 -0.915815 0.045266 
0.000000 0.088581 0.802864 0.612255 0.031316 2.928422 4.288371 2.418213 -34.080936 0.000000 0.000000 0.000002 -0.000000 0.000000 0.000003 0.000000 0.005500 0.192500 -18.469875 -0.539784 1.703795 0.018300 -0.074300 0.139400 -5.946877 -1.479352 -12.618188 0.279318 0.189649 0.011096 1.000856 24.615558 -2.192480 -4.379561 -14.213826 1.280899 -0.018300 -0.074300 0.139400 -6.472918 1.869159 -1.044813 -0.299028 -0.004385 -0.049884 -14.310298 27.900756 23.477585 0.018022 -1.017502 -0.031699 0.000000 0.003578 0.000518 -9.046260 19.518481 0.796270 -0.000000 0.000000 -0.000000 -1.807231 0.000005 0.000470 0.240133 -0.002408 0.010506 15.923519 -2.142858 -0.577107 7.767336 -0.964264 -0.089422 -0.266177 0.015954 0.008371 -23.581037 3.579426 -1.549455 3.198638 -0.915815 0.045266 
0.000000 0.088581 0.802864 0.612255 0.031316 2.928422 4.515764 2.593643 -36.776713 0.000000 0.000000 0.000002 -0.000001 0.000000 -0.000002 -0.000000 0.005500 0.192500 -19.434301 -0.617689 1.841369 0.018300 -0.074300 0.139400 -5.946878 -1.479351 -12.618187 0.279318 0.189649 0.011096 1.922538 23.180815 -3.274312 -4.709382 -13.326409 0.826059 -0.018300 -0.074300 0.139400 -6.472917 1.869161 -1.044801 -0.299028 -0.004385 -0.049884 -19.223936 32.810251 31.039207 0.018018 -1.017499 -0.031699 0.000000 0.003578 0.000518 -9.046260 19.518481 0.796270 -0.000000 0.000000 -0.000000 -1.807231 0.000005 0.000470 0.240133 -0.002408 0.010506 17.882183 -2.238041 -0.544808 7.767338 -0.964264 -0.089421 -0.266177 0.015954 0.008371 -25.091274 3.648147 -1.517550 3.198637 -0.915815 0.045266 
0.000000 0.088581 0.802864 0.612255 0.031316 2.928422 4.601195 2.655268 -37.765543 -0.000000 0.000000 0.000003 -0.000000 -0.000000 -0.000000 0.000000 0.005500 0.192500 -19.789367 -0.646952 1.891688 0.018300 -0.074300 0.139400 -5.946878 -1.479351 -12.618186 0.279318 0.189649 0.011096 2.935602 21.726162 -4.436380 -5.052025 -12.376853 0.348320 -0.018300 -0.074300 0.139400 -6.472917 1.869160 -1.044799 -0.299028 -0.004385 -0.049884 -24.413210 34.398803 39.296875 0.018019 -1.017502 -0.031699 0.000000 0.003578 0.000518 -9.046260 19.518481 0.796270 -0.000000 0.000000 -0.000000 -1.807231 0.000005 0.000470 0.240133 -0.002408 0.010506 18.602111 -2.272738 -0.532121 7.767336 -0.964264 -0.089422 -0.266177 0.015954 0.008371 -25.646927 3.673215 -1.505357 3.198640 -0.915815 0.045266 
0.000000 0.088581 0.802864 0.612255 0.031316 2.928422 4.601195 2.655268 -37.765543 -0.000000 0.000000 0.000003 -0.000000 -0.000000 -0.000000 0.000000 0.005500 0.192500 -19.434301 -0.617686 1.841366 0.018300 -0.074300 0.139400 -5.946878 -1.479351 -12.618186 0.279319 0.189649 0.011096 4.040752 20.285382 -5.671486 -5.402623 -11.374533 -0.146413 -0.018300 -0.074300 0.139400 -6.472917 1.869160 -1.044799 -0.299028 -0.004385 -0.049884 -30.201146 32.888027 48.715720 0.018019 -1.017501 -0.031698 0.000000 0.003578 0.000518 -9.046260 19.518481 0.796270 -0.000000 0.000000 -0.000000 -1.807231 0.000005 0.000470 0.240133 -0.002408 0.010506 18.179856 -2.252507 -0.539773 9.701987 -1.044657 -0.121399 -0.266177 0.015954 0.008371 -25.341573 3.659137 -1.512001 3.198637 -0.915815 0.045266 
0.000000 0.088581 0.802864 0.612255 0.031316 2.928422 4.601195 2.655268 -37.765543 -0.000000 0.000000 0.000003 -0.000000 -0.000000 -0.000000 0.000000 0.005500 0.192500 -18.469875 -0.539783 1.703789 0.018300 -0.074300 0.139400 -5.946878 -1.479351 -12.618186 0.279318 0.189649 0.011096 5.240633 18.892945 -6.973906 -5.756654 -10.329034 -0.652559 -0.018300 -0.074300 0.139400 -6.472917 1.869160 -1.044799 -0.299028 -0.004385 -0.049884 -36.274373 29.198195 58.716589 0.018020 -1.017498 -0.031697 0.000000 0.003578 0.000518 -9.046260 19.518481 0.796270 -0.000000 0.000000 -0.000000 -1.807231 0.000005 0.000470 0.240133 -0.002408 0.010506 16.985314 -2.194945 -0.560565 14.330519 -1.241010 -0.186753 -0.266177 0.015954 0.008371 -24.473285 3.619007 -1.530507 3.198637 -0.915815 0.045266 
0.000000 0.088581 0.802864 0.612255 0.031316 2.928422 4.601195 2.655268 -37.765543 -0.000000 0.000000 0.000003 -0.000000 -0.000000 -0.000000 0.000000 0.005500 0.192500 -17.047001 -0.429128 1.498522 0.018300 -0.074300 0.139400 -5.946878 -1.479351 -12.618186 0.279318 0.189649 0.011096 6.539878 17.583759 -8.339466 -6.109983 -9.250147 -1.164847 -0.018300 -0.074300 0.139400 -6.472917 1.869160 -1.044799 -0.299028 -0.004385 -0.049884 -41.072202 24.453761 67.243499 0.018018 -1.017503 -0.031700 0.000000 0.003578 0.000518 -9.046260 19.518481 0.796270 -0.000000 0.000000 -0.000000 -1.807231 0.000005 0.000470 0.240133 -0.002408 0.010506 15.125923 -2.104461 -0.590445 19.865767 -1.481790 -0.243795 -0.266177 0.015954 0.008371 -23.113787 3.555795 -1.558305 3.198639 -0.915815 0.045266 
0.000000 0.088581 0.802864 0.612255 0.031316 2.928422 4.601195 2.655268 -37.765543 -0.000000 0.000000 0.000003 -0.000000 -0.000000 -0.000000 0.000000 0.005500 0.192500 -15.317237 -0.301559 1.245453 0.018300 -0.074300 0.139400 -5.946878 -1.479351 -12.618186 0.279318 0.189649 0.011096 7.945078 16.392686 -9.765696 -6.458870 -8.147862 -1.678322 -0.018300 -0.074300 0.139400 -6.472917 1.869160 -1.044799 -0.299028 -0.004385 -0.049884 -43.994191 20.333939 73.015405 0.018018 -1.017507 -0.031699 0.000000 0.003578 0.000518 -9.046260 19.518481 0.796270 -0.000000 0.000000 -0.000000 -1.807231 0.000005 0.000470 0.240133 -0.002408 0.010506 12.709132 -1.985405 -0.624734 24.494923 -1.686598 -0.273475 -0.266177 0.015954 0.008371 -21.334453 3.472355 -1.592487 3.198639 -0.915815 0.045267 
0.000000 0.088581 0.802864 0.612255 0.031316 2.928422 4.601195 2.655268 -37.765543 -0.000000 0.000000 0.000003 -0.000000 -0.000000 -0.000000 0.000000 0.005500 0.192500 -13.433284 -0.171421 0.965674 0.018300 -0.074300 0.139400 -5.946878 -1.479351 -12.618186 0.279318 0.189649 0.011096 9.464768 15.354130 -11.252072 -6.799970 -7.032324 -2.188342 -0.018300 -0.074300 0.139400 -6.472917 1.869160 -1.044799 -0.299028 -0.004385 -0.049884 -44.989421 18.598894 75.150775 0.018020 -1.017500 -0.031700 0.000000 0.003578 0.000518 -9.046260 19.518481 0.796270 -0.000000 0.000000 -0.000000 -1.807231 0.000005 0.000470 0.240133 -0.002408 0.010506 9.843766 -1.842417 -0.658652 26.429984 -1.772794 -0.280959 -0.266177 0.015954 0.008371 -19.206067 3.371564 -1.630062 3.198639 -0.915815 0.045266 
0.000000 0.088581 0.802864 0.612255 0.031316 2.928422 4.601195 2.655268 -37.765543 -0.000000 0.000000 0.000003 -0.000000 -0.000000 -0.000000 0.000000 0.005500 0.192500 -11.548745 -0.050553 0.681777 0.018300 -0.074300 0.139400 -5.946878 -1.479351 -12.618186 0.279318 0.189649 0.011096 11.096119 14.431174 -12.796744 -7.130325 -5.913818 -2.690558 -0.018300 -0.074300 0.139400 -6.472917 1.869160 -1.044799 -0.299028 -0.004385 -0.049884 -43.529468 20.682766 71.986301 0.018017 -1.017505 -0.031695 0.000000 0.003578 0.000518 -9.046260 19.518481 0.796270 -0.000000 0.000000 -0.000000 -1.807231 0.000005 0.000470 0.240133 -0.002408 0.010506 6.640649 -1.680655 -0.687803 24.494916 -1.686597 -0.273475 -0.266177 0.015954 0.008371 -16.798562 3.256420 -1.668181 3.198639 -0.915815 0.045267 
0.000000 0.088581 0.802864 0.612255 0.031316 2.928422 4.601195 2.655268 -37.765543 -0.000000 0.000000 0.000003 -0.000000 -0.000000 -0.000000 0.000000 0.005500 0.192500 -9.817404 0.052175 0.417654 0.018300 -0.074300 0.139400 -5.946878 -1.479351 -12.618186 0.279318 0.189649 0.011096 12.806612 13.558304 -14.378482 -7.447358 -4.802741 -3.180898 -0.018300 -0.074300 0.139400 -6.472917 1.869160 -1.044799 -0.299028 -0.004385 -0.049884 -39.402023 25.369394 63.902703 0.018019 -1.017504 -0.031700 0.000000 0.003578 0.000518 -9.046260 19.518481 0.796270 -0.000000 0.000000 -0.000000 -1.807231 0.000005 0.000470 0.240133 -0.002408 0.010506 3.212336 -1.505838 -0.708606 19.865764 -1.481789 -0.243796 -0.266177 0.015954 0.008371 -14.180637 3.130099 -1.704323 3.198640 -0.915815 0.045266 
0.000000 0.088581 0.802864 0.612255 0.031316 2.928422 4.601195 2.655268 -37.765543 -0.000000 0.000000 0.000003 -0.000000 -0.000000 -0.000000 0.000000 0.005500 0.192500 -8.392498 0.130685 0.198086 0.018300 -0.074300 0.139400 -5.946878 -1.479351 -12.618186 0.279318 0.189649 0.011096 14.562346 12.728454 -15.970155 -7.748833 -3.709541 -3.655525 -0.018300 -0.074300 0.139400 -6.472917 1.869160 -1.044799 -0.299028 -0.004385 -0.049884 -33.259787 30.196895 53.238937 0.018019 -1.017500 -0.031698 0.000000 0.003578 0.000518 -9.046260 19.518481 0.796270 -0.000000 0.000000 -0.000000 -1.807231 0.000005 0.000470 0.240133 -0.002408 0.010506 -0.327870 -1.324148 -0.718654 14.330519 -1.241011 -0.186753 -0.266177 0.015954 0.008371 -11.419391 2.995946 -1.736447 3.198639 -0.915815 0.045266 
0.000000 0.088581 0.802864 0.612255 0.031316 2.928422 4.601195 2.655268 -37.765543 -0.000000 0.000000 0.000003 -0.000000 -0.000000 -0.000000 0.000000 0.005500 0.192500 -7.426315 0.180794 0.048149 0.018300 -0.074300 0.139400 -5.946878 -1.479351 -12.618186 0.279318 0.189649 0.011096 16.330491 11.937445 -17.545962 -8.032838 -2.644701 -4.110824 -0.018300 -0.074300 0.139400 -6.472917 1.869160 -1.044799 -0.299028 -0.004385 -0.049884 -27.173389 33.357923 43.531019 0.018018 -1.017506 -0.031698 0.000000 0.003578 0.000518 -9.046260 19.518481 0.796270 -0.000000 0.000000 -0.000000 -1.807231 0.000005 0.000470 0.240133 -0.002408 0.010506 -3.867482 -1.141990 -0.716923 9.701981 -1.044657 -0.121398 -0.266177 0.015954 0.008371 -8.579842 2.857433 -1.763095 3.198638 -0.915815 0.045266 
0.000000 0.088581 0.802864 0.612255 0.031316 2.928422 4.601195 2.655268 -37.765543 -0.000000 0.000000 0.000003 -0.000000 -0.000000 -0.000000 0.000000 0.005500 0.192500 -7.070533 0.198605 -0.007267 0.018300 -0.074300 0.139400 -5.946878 -1.479351 -12.618186 0.279318 0.189649 0.011096 18.079565 11.184016 -19.081660 -8.297746 -1.618706 -4.543330 -0.018300 -0.074300 0.139400 -6.472917 1.869160 -1.044799 -0.299028 -0.004385 -0.049884 -24.413210 34.398803 39.296875 0.018019 -1.017502 -0.031699 0.000000 0.003578 0.000518 -9.046260 19.518481 0.796270 -0.000000 0.000000 -0.000000 -1.807231 0.000005 0.000470 0.240133 -0.002408 0.010506 -7.296474 -0.965693 -0.703835 7.767336 -0.964264 -0.089421 -0.266177 0.015954 0.008371 -5.724585 2.718086 -1.783453 3.198637 -0.915815 0.045266 
0.000000 0.088581 0.802864 0.612255 0.031316 2.928422 4.366556 2.715581 -36.152082 -0.000001 -0.000000 0.000002 -0.000000 0.000000 0.000004 0.000000 0.005500 0.192500 -7.426313 0.180794 0.048151 0.018300 -0.074300 0.139400 -5.946877 -1.479352 -12.618189 0.279318 0.189649 0.011096 19.779664 10.469604 -20.554638 -8.542191 -0.642006 -4.949757 -0.018300 -0.074300 0.139400 -6.472916 1.869159 -1.044808 -0.299028 -0.004385 -0.049884 -25.199032 34.279241 40.552192 0.018019 -1.017497 -0.031699 0.000000 0.003578 0.000518 -9.046260 19.518481 0.796270 -0.000000 0.000000 -0.000000 -1.807231 0.000005 0.000470 0.240133 -0.002408 0.010506 -10.525814 -0.800800 -0.681362 8.054082 -0.976100 -0.094349 -0.266177 0.015954 0.008371 -2.908847 2.579737 -1.796384 3.198638 -0.915815 0.045266 
0.000000 0.088581 0.802864 0.612255 0.031316 2.928422 3.713541 2.847154 -31.713692 -0.000000 -0.000001 0.000000 0.000000 -0.000000 -0.000001 0.000000 0.005500 0.192500 -8.392497 0.130685 0.198088 0.018300 -0.074300 0.139400 -5.946876 -1.479351 -12.618191 0.279319 0.189649 0.011095 21.402575 9.798030 -21.944051 -8.765001 0.275007 -5.326889 -0.018300 -0.074300 0.139400 -6.472917 1.869160 -1.044806 -0.299028 -0.004385 -0.049884 -27.318689 33.881324 43.955792 0.018019 -1.017496 -0.031699 0.000000 0.003578 0.000518 -9.046260 19.518481 0.796270 -0.000000 0.000000 -0.000000 -1.807231 0.000005 0.000470 0.240133 -0.002408 0.010506 -13.525932 -0.649471 -0.651981 8.835930 -1.008496 -0.107482 -0.266177 0.015954 0.008371 -0.180631 2.444001 -1.801281 3.198637 -0.915815 0.045267 
0.000000 0.088581 0.802864 0.612255 0.031316 2.928422 2.717254 2.949055 -25.036912 0.000000 0.000000 0.000001 -0.000001 -0.000000 0.000001 0.000000 0.005500 0.192500 -9.817405 0.052175 0.417656 0.018300 -0.074300 0.139400 -5.946877 -1.479352 -12.618186 0.279318 0.189649 0.011096 22.921852 9.175117 -23.230773 -8.965176 1.122001 -5.671603 -0.018300 -0.074300 0.139400 -6.472917 1.869160 -1.044803 -0.299028 -0.004385 -0.049884 -30.385405 33.101009 48.940102 0.018018 -1.017507 -0.031699 0.000000 0.003578 0.000518 -9.046260 19.518481 0.796270 -0.000000 0.000000 -0.000000 -1.807231 0.000005 0.000470 0.240133 -0.002408 0.010506 -16.276413 -0.512691 -0.617951 9.995368 -1.056859 -0.126141 -0.266177 0.015954 0.008371 2.410064 2.314037 -1.798995 3.198637 -0.915815 0.045266 
0.000000 0.088581 0.802864 0.612255 0.031316 2.928422 1.478069 2.913940 -16.768876 -0.000001 0.000000 -0.000000 -0.000000 -0.000000 0.000000 0.000000 0.005500 0.192500 -11.548743 -0.050552 0.681773 0.018300 -0.074300 0.139400 -5.946876 -1.479352 -12.618187 0.279319 0.189649 0.011096 24.312649 8.608171 -24.397253 -9.141815 1.888737 -5.980807 -0.018300 -0.074300 0.139400 -6.472915 1.869160 -1.044804 -0.299028 -0.004385 -0.049884 -33.969891 31.852235 54.893424 0.018019 -1.017498 -0.031702 0.000000 0.003578 0.000518 -9.046260 19.518481 0.796270 -0.000000 0.000000 -0.000000 -1.807231 0.000005 0.000470 0.240133 -0.002408 0.010506 -18.754012 -0.391367 -0.581580 11.414611 -1.116559 -0.147642 -0.266177 0.015954 0.008371 4.813279 2.192903 -1.790843 3.198637 -0.915815 0.045266 
0.000000 0.088581 0.802864 0.612255 0.031316 2.928422 0.135427 2.669995 -7.668780 -0.000001 0.000000 0.000001 -0.000000 0.000000 0.000000 0.000000 0.005500 0.192500 -13.433287 -0.171420 0.965674 0.018300 -0.074300 0.139400 -5.946878 -1.479351 -12.618186 0.279318 0.189649 0.011096 25.551529 8.105524 -25.427220 -9.294082 2.565040 -6.251399 -0.018300 -0.074300 0.139400 -6.472916 1.869161 -1.044804 -0.299028 -0.004385 -0.049884 -37.634476 30.142151 61.185203 0.018018 -1.017503 -0.031702 0.000000 0.003578 0.000518 -9.046260 19.518481 0.796270 -0.000000 0.000000 -0.000000 -1.807231 0.000005 0.000470 0.240133 -0.002408 0.010506 -20.933053 -0.286349 -0.545181 12.975368 -1.182804 -0.169569 -0.266177 0.015954 0.008371 6.979434 2.083490 -1.778521 3.198638 -0.915815 0.045266 
0.000000 0.088581 0.802864 0.612255 0.031316 2.928422 -1.151371 2.217129 1.420788 -0.000000 0.000000 -0.000000 0.000000 -0.000000 -0.000000 0.000000 0.005500 0.192500 -15.317239 -0.301558 1.245451 0.018300 -0.074300 0.139400 -5.946877 -1.479351 -12.618189 0.279318 0.189649 0.011096 26.616028 7.676053 -26.305290 -9.421141 3.140829 -6.480247 -0.018300 -0.074300 0.139400 -6.472916 1.869160 -1.044806 -0.299028 -0.004385 -0.049884 -40.999300 28.104471 67.227400 0.018019 -1.017493 -0.031698 0.000000 0.003578 0.000518 -9.046260 19.518481 0.796270 -0.000000 0.000000 -0.000000 -1.807231 0.000005 0.000470 0.240133 -0.002408 0.010506 -22.785627 -0.198445 -0.511037 14.558968 -1.250605 -0.189963 -0.266177 0.015954 0.008371 8.859528 1.988506 -1.763991 3.198640 -0.915815 0.045266 
0.000000 0.088581 0.802864 0.612255 0.031316 2.928422 -2.244423 1.634549 9.662187 -0.000001 0.000000 -0.000000 -0.000000 -0.000000 -0.000001 0.000000 0.005500 0.192500 -17.046998 -0.429127 1.498523 0.018300 -0.074300 0.139400 -5.946876 -1.479352 -12.618188 0.279319 0.189649 0.011096 27.484135 7.328679 -27.016477 -9.522097 3.606054 -6.664176 -0.018300 -0.074300 0.139400 -6.472917 1.869161 -1.044801 -0.299027 -0.004385 -0.049884 -43.796788 25.983945 72.528092 0.018019 -1.017496 -0.031698 0.000000 0.003578 0.000518 -9.046260 19.518481 0.796270 -0.000000 0.000000 -0.000000 -1.807231 0.000005 0.000470 0.240133 -0.002408 0.010506 -24.282011 -0.128456 -0.481342 16.046727 -1.314793 -0.207404 -0.266177 0.015954 0.008371 10.405162 1.910482 -1.749356 3.198637 -0.915815 0.045266 
0.000000 0.088581 0.802864 0.612255 0.031316 2.928422 -3.058809 1.053522 16.307719 -0.000001 0.000000 0.000001 0.000000 -0.000000 0.000001 0.000000 0.005500 0.192500 -18.469877 -0.539783 1.703793 0.018300 -0.074300 0.139400 -5.946876 -1.479351 -12.618185 0.279318 0.189649 0.011096 28.133740 7.071947 -27.545542 -9.595917 3.950718 -6.799902 -0.018300 -0.074300 0.139400 -6.472917 1.869160 -1.044802 -0.299028 -0.004385 -0.049884 -45.878917 24.088569 76.701508 0.018019 -1.017494 -0.031698 0.000000 0.003578 0.000518 -9.046260 19.518481 0.796270 -0.000000 0.000000 -0.000000 -1.807231 0.000005 0.000470 0.240133 -0.002408 0.010506 -25.390960 -0.077223 -0.458125 17.320328 -1.370089 -0.221001 -0.266177 0.015954 0.008371 11.568408 1.851820 -1.736711 3.198639 -0.915815 0.045267 
0.000000 0.088581 0.802864 0.612255 0.031316 2.928422 -3.560704 0.616610 20.721759 -0.000000 0.000000 0.000001 -0.000000 0.000000 0.000000 0.000000 0.005500 0.192500 -19.434299 -0.617685 1.841367 0.018300 -0.074300 0.139400 -5.946875 -1.479352 -12.618190 0.279318 0.189649 0.011096 28.541832 6.913513 -27.876305 -9.641365 4.164847 -6.883987 -0.018300 -0.074300 0.139400 -6.472915 1.869160 -1.044804 -0.299028 -0.004385 -0.049884 -47.176755 22.738425 79.433304 0.018019 -1.017502 -0.031699 0.000000 0.003578 0.000518 -9.046260 19.518481 0.796270 -0.000000 0.000000 -0.000000 -1.807231 0.000005 0.000470 0.240133 -0.002408 0.010506 -26.080259 -0.045678 -0.443176 18.261960 -1.411161 -0.230253 -0.266177 0.015954 0.008371 12.301524 1.814864 -1.727993 3.198637 -0.915815 0.045266 
0.000000 0.088581 0.802864 0.612255 0.031316 2.928422 -3.734654 0.448333 22.325853 -0.000000 0.000000 0.000001 -0.000000 0.000000 0.000002 0.000000 0.005500 0.192500 -19.789362 -0.646951 1.891688 0.018300 -0.074300 0.139400 -5.946876 -1.479352 -12.618190 0.279318 0.189649 0.011096 28.683745 6.859631 -27.990925 -9.656918 4.238448 -6.912855 -0.018300 -0.074300 0.139400 -6.472917 1.869160 -1.044803 -0.299028 -0.004385 -0.049884 -47.631560 22.229662 80.419371 0.018019 -1.017499 -0.031700 0.000000 0.003578 0.000518 -9.046260 19.518481 0.796270 -0.000000 0.000000 -0.000000 -1.807231 0.000005 0.000470 0.240133 -0.002408 0.010506 -26.317241 -0.034895 -0.437943 18.754228 -1.432699 -0.234806 -0.266177 0.015954 0.008371 12.556612 1.801998 -1.724809 3.198638 -0.915815 0.045266 
0.000000 0.088581 0.802864 0.612255 0.031316 2.928422 -3.734654 0.448333 22.325853 -0.000000 0.000000 0.000001 -0.000000 0.000000 0.000002 0.000000 0.005500 0.192500 -19.789362 -0.646951 1.891688 0.018300 -0.074300 0.139400 -5.946876 -1.479352 -12.618190 0.279318 0.189649 0.011096 28.583788 6.999476 -27.999759 -9.638926 3.645859 -6.650540 -0.018300 -0.074300 0.139400 -6.472917 1.869160 -1.044803 -0.299028 -0.004385 -0.049884 -47.204295 23.504617 78.565740 0.018020 -1.017504 -0.031698 0.000000 0.003578 0.000518 -9.046260 19.518481 0.796270 -0.000000 0.000000 -0.000000 -1.807231 0.000005 0.000470 0.240133 -0.002408 0.010506 -26.080258 -0.045678 -0.443177 18.977018 -1.442466 -0.236790 -0.266177 0.015954 0.008371 12.301524 1.814865 -1.727993 3.198637 -0.915815 0.045266 
0.000000 0.088581 0.802864 0.612255 0.031316 2.928422 -3.734654 0.448333 22.325853 -0.000000 0.000000 0.000001 -0.000000 0.000000 0.000002 0.000000 0.005500 0.192500 -19.789362 -0.646951 1.891688 0.018300 -0.074300 0.139400 -5.946876 -1.479352 -12.618190 0.279318 0.189648 0.011096 28.294093 7.403681 -28.017687 -9.557805 2.029020 -5.938980 -0.018300 -0.074300 0.139400 -6.472917 1.869160 -1.044803 -0.299028 -0.004385 -0.049884 -45.977780 26.499223 74.005790 0.018020 -1.017502 -0.031698 0.000000 0.003578 0.000518 -9.046260 19.518481 0.796270 -0.000000 0.000000 -0.000000 -1.807231 0.000005 0.000470 0.240133 -0.002408 0.010506 -25.390958 -0.077223 -0.458125 19.188677 -1.451753 -0.238639 -0.266177 0.015954 0.008371 11.568408 1.851820 -1.736711 3.198639 -0.915815 0.045266 
0.000000 0.088581 0.802864 0.612255 0.031316 2.928422 -3.734654 0.448333 22.325853 -0.000000 0.000000 0.000001 -0.000000 0.000000 0.000002 0.000000 0.005500 0.192500 -19.789362 -0.646951 1.891688 0.018300 -0.074300 0.139400 -5.946876 -1.479352 -12.618190 0.279319 0.189649 0.011096 27.829565 8.049351 -28.030183 -9.363591 -0.369872 -4.887032 -0.018300 -0.074300 0.139400 -6.472917 1.869160 -1.044803 -0.299028 -0.004385 -0.049884 -44.110574 29.948225 68.286763 0.018019 -1.017505 -0.031696 0.000000 0.003578 0.000518 -9.046260 19.518481 0.796270 -0.000000 0.000000 -0.000000 -1.807231 0.000005 0.000470 0.240133 -0.002408 0.010506 -24.282011 -0.128456 -0.481342 19.389497 -1.460570 -0.240363 -0.266177 0.015954 0.008371 10.405161 1.910482 -1.749356 3.198637 -0.915815 0.045266 
0.000000 0.088581 0.802864 0.612255 0.031316 2.928422 -3.734654 0.448333 22.325853 -0.000000 0.000000 0.000001 -0.000000 0.000000 0.000002 0.000000 0.005500 0.192500 -19.789362 -0.646951 1.891688 0.018300 -0.074300 0.139400 -5.946876 -1.479352 -12.618190 0.279318 0.189649 0.011096 27.204391 8.913467 -28.020988 -9.006689 -3.303447 -3.596908 -0.018300 -0.074300 0.139400 -6.472917 1.869160 -1.044803 -0.299028 -0.004385 -0.049884 -42.191393 32.689702 63.247470 0.018018 -1.017499 -0.031699 0.000000 0.003578 0.000518 -9.046260 19.518481 0.796270 -0.000000 0.000000 -0.000000 -1.807231 0.000005 0.000470 0.240133 -0.002408 0.010506 -22.785625 -0.198445 -0.511038 19.579757 -1.468929 -0.241967 -0.266177 0.015954 0.008371 8.859527 1.988506 -1.763991 3.198638 -0.915815 0.045266 
0.000000 0.088581 0.802864 0.612255 0.031316 2.928422 -3.734654 0.448333 22.325853 -0.000000 0.000000 0.000001 -0.000000 0.000000 0.000002 0.000000 0.005500 0.192500 -19.789362 -0.646951 1.891688 0.018300 -0.074300 0.139400 -5.946876 -1.479352 -12.618190 0.279318 0.189649 0.011096 26.431794 9.972617 -27.972671 -8.449553 -6.517711 -2.165649 -0.018300 -0.074300 0.139400 -6.472917 1.869160 -1.044803 -0.299028 -0.004385 -0.049884 -41.287851 33.789414 61.064582 0.018020 -1.017494 -0.031701 0.000000 0.003578 0.000518 -9.046260 19.518481 0.796270 -0.000000 0.000000 -0.000000 -1.807231 0.000005 0.000470 0.240133 -0.002408 0.010506 -20.933049 -0.286349 -0.545181 19.759729 -1.476841 -0.243458 -0.266177 0.015954 0.008371 6.979434 2.083491 -1.778521 3.198638 -0.915814 0.045266 
0.000000 0.088581 0.802864 0.612255 0.031316 2.928422 -3.671916 0.547806 22.019642 0.000000 -0.000000 0.000002 0.000001 -0.000000 -0.000002 0.000000 0.005500 0.192500 -18.469878 -0.539781 1.703791 0.018300 -0.074300 0.139400 -5.946876 -1.479351 -12.618187 0.279318 0.189649 0.011096 25.523857 11.202726 -27.867107 -7.674258 -9.755220 -0.690104 -0.018300 -0.074300 0.139400 -6.472916 1.869160 -1.044801 -0.299028 -0.004385 -0.049884 -42.191407 32.689712 63.247477 0.018018 -1.017492 -0.031699 0.000000 0.003578 0.000518 -9.046260 19.518481 0.796270 -0.000000 0.000000 -0.000000 -1.807231 0.000005 0.000470 0.240133 -0.002408 0.010506 -18.754016 -0.391367 -0.581580 19.929717 -1.484318 -0.244844 -0.266177 0.015954 0.008371 4.813280 2.192903 -1.790843 3.198637 -0.915815 0.045266 
0.000000 0.088581 0.802864 0.612255 0.031316 2.928422 -3.492269 0.826274 21.156101 -0.000001 0.000000 0.000000 -0.000000 -0.000000 -0.000002 0.000000 0.005500 0.192500 -15.317241 -0.301560 1.245456 0.018300 -0.074300 0.139400 -5.946877 -1.479351 -12.618189 0.279319 0.189649 0.011096 24.491366 12.578882 -27.685812 -6.686862 -12.761340 0.725729 -0.018300 -0.074300 0.139400 -6.472916 1.869161 -1.044802 -0.299028 -0.004385 -0.049884 -44.110581 29.948221 68.286763 0.018018 -1.017492 -0.031699 0.000000 0.003578 0.000518 -9.046260 19.518481 0.796270 -0.000000 0.000000 -0.000000 -1.807231 0.000005 0.000470 0.240133 -0.002408 0.010506 -16.276406 -0.512691 -0.617951 20.089992 -1.491372 -0.246131 -0.266177 0.015954 0.008371 2.410065 2.314037 -1.798994 3.198637 -0.915815 0.045266 
0.000000 0.088581 0.802864 0.612255 0.031316 2.928422 -3.205696 1.252202 19.816419 -0.000000 -0.000000 -0.000002 -0.000001 0.000000 0.000000 0.000000 0.005500 0.192500 -11.548743 -0.050553 0.681772 0.018300 -0.074300 0.139400 -5.946877 -1.479352 -12.618186 0.279318 0.189649 0.011095 23.343754 14.075200 -27.410370 -5.518378 -15.290746 1.962998 -0.018300 -0.074300 0.139400 -6.472916 1.869160 -1.044803 -0.299028 -0.004385 -0.049884 -45.977780 26.499215 74.005783 0.018020 -1.017504 -0.031698 0.000000 0.003578 0.000518 -9.046260 19.518481 0.796270 -0.000000 0.000000 -0.000000 -1.807231 0.000005 0.000470 0.240133 -0.002408 0.010506 -13.525931 -0.649471 -0.651981 20.240847 -1.498014 -0.247324 -0.266177 0.015954 0.008371 -0.180629 2.444002 -1.801281 3.198637 -0.915815 0.045267 
0.000000 0.088581 0.802864 0.612255 0.031316 2.928422 -2.820558 1.792559 18.081145 -0.000000 0.000000 0.000000 -0.000000 0.000000 -0.000002 0.000000 0.005500 0.192500 -8.392498 0.130686 0.198087 0.018300 -0.074300 0.139400 -5.946877 -1.479351 -12.618186 0.279318 0.189649 0.011096 22.089166 15.664793 -27.022648 -4.221122 -17.111270 2.882492 -0.018300 -0.074300 0.139400 -6.472918 1.869160 -1.044802 -0.299028 -0.004385 -0.049884 -47.204305 23.504616 78.565733 0.018020 -1.017498 -0.031699 0.000000 0.003578 0.000518 -9.046260 19.518481 0.796270 -0.000000 0.000000 -0.000000 -1.807231 0.000005 0.000470 0.240133 -0.002408 0.010506 -10.525814 -0.800800 -0.681362 20.382563 -1.504256 -0.248429 -0.266177 0.015954 0.008371 -2.908846 2.579737 -1.796384 3.198638 -0.915815 0.045266 
0.000000 0.088581 0.802864 0.612255 0.031316 2.928422 -2.345992 2.413613 16.031765 -0.000001 -0.000000 -0.000001 0.000000 0.000000 -0.000002 0.000000 0.005500 0.192500 -7.070533 0.198606 -0.007262 0.018300 -0.074300 0.139400 -5.946877 -1.479351 -12.618187 0.279318 0.189649 0.011096 20.734537 17.319755 -26.505094 -2.858285 -18.002898 3.323815 -0.018300 -0.074300 0.139400 -6.472917 1.869160 -1.044806 -0.299028 -0.004385 -0.049884 -47.631560 22.229663 80.419371 0.018020 -1.017499 -0.031698 0.000000 0.003578 0.000518 -9.046260 19.518481 0.796270 -0.000000 0.000000 -0.000000 -1.807231 0.000005 0.000470 0.240133 -0.002408 0.010506 -7.296474 -0.965693 -0.703835 20.515419 -1.510111 -0.249450 -0.266177 0.015954 0.008371 -5.724585 2.718086 -1.783453 3.198637 -0.915815 0.045266 
0.000000 0.088581 0.802864 0.612255 0.031316 2.928422 -1.793803 3.081867 13.751804 -0.000001 0.000000 0.000001 0.000000 0.000000 0.000001 0.000000 0.005500 0.192500 -7.070533 0.198606 -0.007264 0.018300 -0.074300 0.139400 -5.946876 -1.479352 -12.618191 0.279318 0.189649 0.011096 19.285982 19.011306 -25.841012 -1.464772 -18.340523 3.322354 -0.018300 -0.074300 0.139400 -6.472915 1.869160 -1.044804 -0.299028 -0.004385 -0.049884 -45.712971 21.882133 77.888417 0.018016 -1.017500 -0.031699 0.000000 0.003578 0.000518 -9.046260 19.518481 0.796270 -0.000000 0.000000 -0.000000 -1.807231 0.000005 0.000470 0.240133 -0.002408 0.010506 -3.867482 -1.141990 -0.716923 20.639713 -1.515591 -0.250394 -0.266177 0.015954 0.008371 -8.579845 2.857433 -1.763095 3.198638 -0.915815 0.045266 
0.000000 0.088581 0.802864 0.612255 0.031316 2.928422 -1.179745 3.765184 11.327278 -0.000000 -0.000000 0.000001 -0.000000 0.000000 -0.000000 0.000000 0.005500 0.192500 -7.070534 0.198606 -0.007264 0.018300 -0.074300 0.139400 -5.946876 -1.479351 -12.618189 0.279318 0.189649 0.011095 17.749092 20.709892 -25.014887 -0.062152 -18.648230 3.063814 -0.018300 -0.074300 0.139400 -6.472916 1.869160 -1.044804 -0.299028 -0.004385 -0.049884 -40.443924 20.488177 70.875910 0.018015 -1.017501 -0.031698 0.000000 0.003578 0.000518 -9.046260 19.518481 0.796270 -0.000000 0.000000 -0.000000 -1.807231 0.000005 0.000470 0.240133 -0.002408 0.010506 -0.327869 -1.324149 -0.718654 20.755717 -1.520707 -0.251264 -0.266177 0.015954 0.008371 -11.419392 2.995946 -1.736447 3.198638 -0.915815 0.045266 
0.000000 0.088581 0.802864 0.612255 0.031316 2.928422 -0.524189 4.433980 8.846797 0.000000 -0.000000 -0.000000 -0.000000 0.000000 -0.000000 0.000000 0.005500 0.192500 -7.070534 0.198606 -0.007264 0.018300 -0.074300 0.139400 -5.946877 -1.479352 -12.618191 0.279318 0.189649 0.011096 16.129483 22.385397 -24.012655 1.309233 -18.933551 2.600123 -0.018300 -0.074300 0.139400 -6.472916 1.869160 -1.044801 -0.299028 -0.004385 -0.049884 -32.767375 17.159532 60.391822 0.018017 -1.017501 -0.031701 0.000000 0.003578 0.000518 -9.046260 19.518481 0.796270 -0.000000 0.000000 -0.000000 -1.807231 0.000005 0.000470 0.240133 -0.002408 0.010506 3.212338 -1.505838 -0.708606 20.863725 -1.525472 -0.252064 -0.266177 0.015954 0.008371 -14.180637 3.130100 -1.704323 3.198640 -0.915815 0.045267 
0.000000 0.088581 0.802864 0.612255 0.031316 2.928422 0.147861 5.062304 6.401068 -0.000000 0.000000 -0.000000 -0.000000 0.000000 0.000000 0.000000 0.005500 0.192500 -7.070534 0.198605 -0.007264 0.018300 -0.074300 0.139400 -5.946876 -1.479351 -12.618185 0.279319 0.189649 0.011096 14.433482 24.007358 -22.822152 2.609563 -19.200821 1.983527 -0.018300 -0.074300 0.139400 -6.472916 1.869160 -1.044803 -0.299028 -0.004385 -0.049884 -24.179626 11.085905 47.953481 0.018018 -1.017500 -0.031700 0.000000 0.003578 0.000518 -9.046260 19.518481 0.796270 -0.000000 0.000000 -0.000000 -1.807231 0.000005 0.000470 0.240133 -0.002408 0.010506 6.640648 -1.680655 -0.687803 20.964023 -1.529898 -0.252800 -0.266177 0.015954 0.008371 -16.798555 3.256419 -1.668181 3.198638 -0.915815 0.045267 
0.000000 0.088581 0.802864 0.612255 0.031316 2.928422 0.807357 5.628587 4.082063 -0.000000 0.000000 -0.000001 -0.000000 -0.000000 0.000000 0.000000 0.005500 0.192500 -7.070534 0.198606 -0.007264 0.018300 -0.074300 0.139400 -5.946876 -1.479352 -12.618186 0.279319 0.189649 0.011096 12.668885 25.545222 -21.433576 3.799578 -19.450840 1.266446 -0.018300 -0.074300 0.139400 -6.472916 1.869160 -1.044808 -0.299028 -0.004385 -0.049884 -16.428931 2.345560 35.351389 0.018019 -1.017500 -0.031702 0.000000 0.003578 0.000518 -9.046260 19.518481 0.796270 -0.000000 0.000000 -0.000000 -1.807231 0.000005 0.000470 0.240133 -0.002408 0.010506 9.843769 -1.842418 -0.658653 21.056891 -1.533997 -0.253474 -0.266177 0.015954 0.008371 -19.206065 3.371564 -1.630062 3.198639 -0.915815 0.045266 
0.000000 0.088581 0.802864 0.612255 0.031316 2.928422 1.422193 6.115827 1.982099 -0.000001 0.000000 -0.000000 -0.000000 0.000000 0.000000 0.000000 0.005500 0.192500 -7.070533 0.198606 -0.007265 0.018300 -0.074300 0.139400 -5.946877 -1.479351 -12.618187 0.279318 0.189649 0.011096 10.845878 26.968614 -19.840004 4.840688 -19.680893 0.501286 -0.018300 -0.074300 0.139400 -6.472916 1.869160 -1.044804 -0.299027 -0.004385 -0.049884 -10.709877 -7.801438 23.933849 0.018019 -1.017500 -0.031701 0.000000 0.003578 0.000518 -9.046260 19.518481 0.796270 -0.000000 0.000000 -0.000000 -1.807231 0.000005 0.000470 0.240133 -0.002408 0.010506 12.709130 -1.985405 -0.624734 21.142625 -1.537783 -0.254090 -0.266177 0.015954 0.008371 -21.334444 3.472355 -1.592486 3.198637 -0.915815 0.045267 
0.000000 0.088581 0.802864 0.612255 0.031316 2.928422 1.958462 6.511124 0.192946 -0.000000 0.000000 0.000000 -0.000000 -0.000000 -0.000000 0.000000 0.005500 0.192500 -7.070534 0.198607 -0.007264 0.018300 -0.074300 0.139400 -5.946876 -1.479352 -12.618186 0.279318 0.189649 0.011096 8.977976 28.247680 -18.037927 5.695109 -19.885146 -0.259695 -0.018300 -0.074300 0.139400 -6.472916 1.869160 -1.044804 -0.299027 -0.004385 -0.049884 -7.288103 -17.549005 14.352983 0.018019 -1.017501 -0.031696 0.000000 0.003578 0.000518 -9.046260 19.518481 0.796270 -0.000000 0.000000 -0.000000 -1.807231 0.000005 0.000470 0.240133 -0.002408 0.010506 15.125923 -2.104461 -0.590445 21.221495 -1.541266 -0.254652 -0.266177 0.015954 0.008371 -23.113785 3.555795 -1.558305 3.198640 -0.915815 0.045266 
0.000000 0.088581 0.802864 0.612255 0.031316 2.928422 2.381714 6.804461 -1.194721 -0.000000 0.000000 -0.000000 -0.000000 -0.000000 0.000000 0.000000 0.005500 0.192500 -7.070532 0.198606 -0.007265 0.018300 -0.074300 0.139400 -5.946876 -1.479351 -12.618188 0.279318 0.189649 0.011096 7.082972 29.353366 -16.027717 6.325845 -20.055281 -0.964475 -0.018300 -0.074300 0.139400 -6.472916 1.869160 -1.044804 -0.299027 -0.004385 -0.049884 -5.735817 -25.406104 6.921796 0.018019 -1.017501 -0.031699 0.000000 0.003578 0.000518 -9.046260 19.518481 0.796270 -0.000000 0.000000 -0.000000 -1.807231 0.000005 0.000470 0.240133 -0.002408 0.010506 16.985313 -2.194945 -0.560565 21.293805 -1.544460 -0.255163 -0.266177 0.015954 0.008371 -24.473285 3.619007 -1.530507 3.198637 -0.915815 0.045267 
0.000000 0.088581 0.802864 0.612255 0.031316 2.928422 2.658173 6.986827 -2.091479 -0.000001 0.000000 -0.000000 -0.000000 -0.000000 0.000000 0.000000 0.005500 0.192500 -7.070534 0.198606 -0.007264 0.018300 -0.074300 0.139400 -5.946877 -1.479351 -12.618187 0.279318 0.189649 0.011095 5.183809 30.257827 -13.814050 6.696599 -20.181558 -1.561114 -0.018300 -0.074300 0.139400 -6.472916 1.869160 -1.044804 -0.299027 -0.004385 -0.049884 -5.306851 -30.497071 2.017463 0.018019 -1.017500 -0.031699 0.000000 0.003578 0.000518 -9.046260 19.518481 0.796270 -0.000000 0.000000 -0.000000 -1.807231 0.000005 0.000470 0.240133 -0.002408 0.010506 18.179855 -2.252506 -0.539773 21.359822 -1.547377 -0.255626 -0.266177 0.015954 0.008371 -25.341571 3.659136 -1.512001 3.198639 -0.915815 0.045266 
0.000000 0.088581 0.802864 0.612255 0.031316 2.928422 2.755818 7.047748 -2.408891 -0.000001 -0.000000 0.000000 -0.000000 -0.000001 -0.000000 0.000000 0.005500 0.192500 -7.070533 0.198607 -0.007264 0.018300 -0.074300 0.139400 -5.946875 -1.479351 -12.618189 0.279318 0.189649 0.011095 3.309163 30.934774 -11.405867 6.771445 -20.254055 -1.997496 -0.018300 -0.074300 0.139400 -6.472916 1.869161 -1.044806 -0.299027 -0.004385 -0.049884 -5.273156 -32.308103 0.225138 0.018020 -1.017496 -0.031699 0.000000 0.003578 0.000518 -9.046260 19.518481 0.796270 -0.000000 0.000000 -0.000000 -1.807231 0.000005 0.000470 0.240133 -0.002408 0.010506 18.602111 -2.272738 -0.532121 21.419845 -1.550030 -0.256044 -0.266177 0.015954 0.008371 -25.646927 3.673215 -1.505357 3.198640 -0.915815 0.045266 
0.000000 0.088581 0.802864 0.612255 0.031316 2.928422 2.745300 6.911224 -2.419062 -0.000001 -0.000000 0.000000 -0.000000 0.000000 0.000000 0.000000 0.005500 0.192500 -7.070533 0.198606 -0.007264 0.018300 -0.074300 0.139400 -5.946876 -1.479351 -12.618188 0.279318 0.189649 0.011095 1.389233 31.340484 -8.445100 6.578644 -20.253490 -2.320958 -0.018300 -0.074300 0.139400 -6.472917 1.869160 -1.044806 -0.299027 -0.004385 -0.049884 -5.273158 -32.308099 0.225138 0.018020 -1.017498 -0.031699 0.000000 0.003578 0.000518 -9.046260 19.518481 0.796270 -0.000000 0.000000 -0.000000 -1.807231 0.000005 0.000470 0.240133 -0.002408 0.010506 18.179856 -2.252507 -0.539773 21.474161 -1.552430 -0.256420 -0.266177 0.015954 0.008371 -25.341573 3.659137 -1.512001 3.198637 -0.915815 0.045266 
0.000000 0.088581 0.802864 0.612255 0.031316 2.928422 2.719237 6.536394 -2.445712 -0.000000 -0.000001 -0.000000 -0.000000 -0.000000 0.000000 0.000000 0.005500 0.192500 -7.070534 0.198607 -0.007264 0.018300 -0.074300 0.139400 -5.946877 -1.479352 -12.618188 0.279318 0.189649 0.011096 -0.613311 31.459271 -4.735810 6.196854 -20.176997 -2.613534 -0.018300 -0.074300 0.139400 -6.472916 1.869161 -1.044802 -0.299027 -0.004385 -0.049884 -5.273157 -32.308099 0.225136 0.018019 -1.017501 -0.031699 0.000000 0.003578 0.000518 -9.046260 19.518481 0.796270 -0.000000 0.000000 -0.000000 -1.807231 0.000005 0.000470 0.240133 -0.002408 0.010506 16.985314 -2.194945 -0.560565 21.523043 -1.554590 -0.256756 -0.266177 0.015954 0.008371 -24.473285 3.619007 -1.530507 3.198637 -0.915815 0.045266 
0.000000 0.088581 0.802864 0.612255 0.031316 2.928422 2.680514 5.962425 -2.478430 0.000000 -0.000000 0.000000 0.000000 0.000000 -0.000000 -0.000000 0.005500 0.192500 -7.070534 0.198607 -0.007264 0.018300 -0.074300 0.139400 -5.946876 -1.479352 -12.618184 0.279318 0.189649 0.011096 -2.608488 31.323176 -0.539568 5.665612 -20.040455 -2.874535 -0.018300 -0.074300 0.139400 -6.472916 1.869160 -1.044803 -0.299027 -0.004385 -0.049884 -5.273156 -32.308099 0.225137 0.018019 -1.017499 -0.031699 0.000000 0.003578 0.000518 -9.046260 19.518481 0.796270 -0.000000 0.000000 -0.000000 -1.807231 0.000005 0.000470 0.240133 -0.002408 0.010506 15.125923 -2.104461 -0.590445 21.566782 -1.556524 -0.257055 -0.266177 0.015954 0.008371 -23.113787 3.555795 -1.558305 3.198639 -0.915815 0.045266 
0.000000 0.088581 0.802864 0.612255 0.031316 2.928422 2.632147 5.228312 -2.506875 -0.000001 -0.000001 -0.000000 -0.000000 -0.000000 0.000000 0.000000 0.005500 0.192500 -7.070534 0.198606 -0.007265 0.018300 -0.074300 0.139400 -5.946877 -1.479351 -12.618186 0.279319 0.189649 0.011095 -4.506745 30.988066 3.880128 5.024197 -19.860307 -3.103251 -0.018300 -0.074300 0.139400 -6.472916 1.869161 -1.044804 -0.299027 -0.004385 -0.049884 -5.273158 -32.308103 0.225138 0.018019 -1.017500 -0.031699 0.000000 0.003578 0.000518 -9.046260 19.518481 0.796270 -0.000000 0.000000 -0.000000 -1.807231 0.000005 0.000470 0.240133 -0.002408 0.010506 12.709133 -1.985405 -0.624734 21.605674 -1.558244 -0.257320 -0.266177 0.015954 0.008371 -21.334453 3.472355 -1.592487 3.198639 -0.915815 0.045267 
0.000000 0.088581 0.802864 0.612255 0.031316 2.928422 2.577462 4.373013 -2.520684 -0.000001 -0.000000 -0.000000 0.000000 -0.000000 -0.000000 0.000000 0.005500 0.192500 -7.070533 0.198606 -0.007264 0.018300 -0.074300 0.139400 -5.946876 -1.479352 -12.618190 0.279318 0.189649 0.011096 -6.232260 30.534620 8.267621 4.311566 -19.653509 -3.299346 -0.018300 -0.074300 0.139400 -6.472916 1.869160 -1.044801 -0.299027 -0.004385 -0.049884 -5.273157 -32.308096 0.225138 0.018020 -1.017499 -0.031699 0.000000 0.003578 0.000518 -9.046260 19.518481 0.796270 -0.000000 0.000000 -0.000000 -1.807231 0.000005 0.000470 0.240133 -0.002408 0.010506 9.843768 -1.842417 -0.658652 21.639984 -1.559760 -0.257553 -0.266177 0.015954 0.008371 -19.206067 3.371564 -1.630062 3.198639 -0.915815 0.045266 
0.000000 0.088581 0.802864 0.612255 0.031316 2.928422 2.520167 3.435520 -2.509381 0.000000 -0.000000 -0.000000 -0.000000 0.000000 0.000000 0.000000 0.005500 0.192500 -7.070533 0.198605 -0.007265 0.018300 -0.074300 0.139400 -5.946877 -1.479351 -12.618187 0.279318 0.189649 0.011096 -7.732070 30.064341 12.383465 3.566315 -19.437361 -3.463152 -0.018300 -0.074300 0.139400 -6.472916 1.869160 -1.044806 -0.299027 -0.004385 -0.049884 -5.273154 -32.308099 0.225135 0.018018 -1.017496 -0.031698 0.000000 0.003578 0.000518 -9.046260 19.518481 0.796270 -0.000000 0.000000 -0.000000 -1.807231 0.000005 0.000470 0.240133 -0.002408 0.010506 6.640650 -1.680655 -0.687803 21.670022 -1.561089 -0.257757 -0.266177 0.015954 0.008371 -16.798563 3.256421 -1.668181 3.198638 -0.915815 0.045267 
0.000000 0.088581 0.802864 0.612255 0.031316 2.928422 2.464405 2.454932 -2.462323 -0.000001 -0.000000 -0.000000 0.000000 0.000000 0.000000 0.000000 0.005500 0.192500 -7.070533 0.198606 -0.007264 0.018300 -0.074300 0.139400 -5.946877 -1.479352 -12.618191 0.279319 0.189649 0.011096 -8.978366 29.692410 16.008107 2.826688 -19.229482 -3.595759 -0.018300 -0.074300 0.139400 -6.472917 1.869160 -1.044801 -0.299027 -0.004385 -0.049884 -5.273157 -32.308099 0.225135 0.018018 -1.017503 -0.031699 0.000000 0.003578 0.000518 -9.046260 19.518481 0.796270 -0.000000 0.000000 -0.000000 -1.807231 0.000005 0.000470 0.240133 -0.002408 0.010506 3.212338 -1.505838 -0.708606 21.696053 -1.562241 -0.257932 -0.266177 0.015954 0.008371 -14.180639 3.130100 -1.704323 3.198640 -0.915815 0.045266 
0.000000 0.088581 0.802864 0.612255 0.031316 2.928422 2.414704 1.470449 -2.368643 -0.000001 -0.000000 -0.000000 -0.000000 0.000000 0.000000 0.000000 0.005500 0.192500 -7.070535 0.198606 -0.007264 0.018300 -0.074300 0.139400 -5.946878 -1.479352 -12.618188 0.279318 0.189649 0.011096 -9.963266 29.540076 18.939539 2.130608 -19.047608 -3.699057 -0.018300 -0.074300 0.139400 -6.472917 1.869161 -1.044803 -0.299027 -0.004385 -0.049884 -5.273158 -32.308103 0.225138 0.018019 -1.017498 -0.031699 0.000000 0.003578 0.000518 -9.046260 19.518481 0.796270 -0.000000 0.000000 -0.000000 -1.807231 0.000005 0.000470 0.240133 -0.002408 0.010506 -0.327868 -1.324149 -0.718654 21.718386 -1.563228 -0.258082 -0.266177 0.015954 0.008371 -11.419393 2.995947 -1.736447 3.198639 -0.915815 0.045266 
0.000000 0.088581 0.802864 0.612255 0.031316 2.928422 2.375875 0.521375 -2.217247 -0.000000 0.000000 -0.000000 -0.000000 0.000000 0.000000 0.000000 0.005500 0.192500 -7.070533 0.198606 -0.007264 0.018300 -0.074300 0.139400 -5.946877 -1.479351 -12.618187 0.279318 0.189649 0.011096 -10.687153 29.728781 20.984983 1.515735 -18.909491 -3.775602 -0.018300 -0.074300 0.139400 -6.472917 1.869160 -1.044804 -0.299027 -0.004385 -0.049884 -5.273154 -32.308099 0.225137 0.018019 -1.017496 -0.031698 0.000000 0.003578 0.000518 -9.046260 19.518481 0.796270 -0.000000 0.000000 -0.000000 -1.807231 0.000005 0.000470 0.240133 -0.002408 0.010506 -3.867482 -1.141990 -0.716923 21.737275 -1.564064 -0.258208 -0.266177 0.015954 0.008371 -8.579844 2.857432 -1.763095 3.198639 -0.915815 0.045266 
0.000000 0.088581 0.802864 0.612255 0.031316 2.928422 2.352821 -0.352898 -1.996830 -0.000001 0.000000 -0.000000 -0.000000 0.000000 -0.000000 0.000000 0.005500 0.192500 -7.070534 0.198606 -0.007264 0.018300 -0.074300 0.139400 -5.946876 -1.479351 -12.618188 0.279318 0.189649 0.011096 -11.141610 30.376624 21.947244 1.019597 -18.832882 -3.828379 -0.018300 -0.074300 0.139400 -6.472917 1.869160 -1.044804 -0.299027 -0.004385 -0.049884 -5.273156 -32.308099 0.225138 0.018019 -1.017505 -0.031699 0.000000 0.003578 0.000518 -9.046260 19.518481 0.796270 -0.000000 0.000000 -0.000000 -1.807231 0.000005 0.000470 0.240133 -0.002408 0.010506 -7.296474 -0.965693 -0.703835 21.753031 -1.564760 -0.258314 -0.266177 0.015954 0.008371 -5.724585 2.718086 -1.783453 3.198637 -0.915815 0.045266 
0.000000 0.088581 0.802864 0.612255 0.031316 2.928422 2.348580 -1.130261 -1.606974 -0.000001 0.000000 -0.000000 -0.000000 0.000000 0.000000 0.000000 0.005500 0.192500 -7.070534 0.198606 -0.007264 0.018300 -0.074300 0.139400 -5.946877 -1.479351 -12.618187 0.279318 0.189649 0.011095 -11.476643 31.401358 22.335526 0.609267 -18.792857 -3.854937 -0.018300 -0.074300 0.139400 -6.472916 1.869160 -1.044803 -0.299027 -0.004385 -0.049884 -5.273157 -32.308103 0.225137 0.018019 -1.017495 -0.031699 0.000000 0.003578 0.000518 -9.046260 19.518481 0.796270 -0.000000 0.000000 -0.000000 -1.807231 0.000005 0.000470 0.240133 -0.002408 0.010506 -10.525815 -0.800800 -0.681362 21.765929 -1.565331 -0.258400 -0.266177 0.015954 0.008371 -2.908845 2.579736 -1.796384 3.198638 -0.915815 0.045266 
0.000000 0.088581 0.802864 0.612255 0.031316 2.928422 2.365665 -1.816310 -0.995674 -0.000001 0.000000 0.000000 -0.000000 -0.000000 0.000000 0.000000 0.005500 0.192500 -7.070534 0.198606 -0.007264 0.018300 -0.074300 0.139400 -5.946877 -1.479352 -12.618190 0.279318 0.189649 0.011096 -11.851330 32.601722 22.781019 0.226217 -18.752928 -3.851776 -0.018300 -0.074300 0.139400 -6.472917 1.869160 -1.044803 -0.299027 -0.004385 -0.049884 -5.273154 -32.308096 0.225137 0.018020 -1.017490 -0.031699 0.000000 0.003578 0.000518 -9.046260 19.518481 0.796270 -0.000000 0.000000 -0.000000 -1.807231 0.000005 0.000470 0.240133 -0.002408 0.010506 -13.525932 -0.649471 -0.651981 21.776258 -1.565788 -0.258469 -0.266177 0.015954 0.008371 -0.180628 2.444001 -1.801280 3.198638 -0.915815 0.045267 
0.000000 0.088581 0.802864 0.612255 0.031316 2.928422 2.406257 -2.412949 -0.224207 0.000001 0.000000 0.000000 -0.000000 0.000000 0.000000 0.000000 0.005500 0.192500 -7.070534 0.198606 -0.007265 0.018300 -0.074300 0.139400 -5.946876 -1.479352 -12.618186 0.279319 0.189649 0.011096 -12.249284 33.913610 23.253493 -0.130471 -18.713421 -3.820423 -0.018300 -0.074300 0.139400 -6.472916 1.869160 -1.044803 -0.299027 -0.004385 -0.049884 -5.273159 -32.308099 0.225137 0.018018 -1.017503 -0.031699 0.000000 0.003578 0.000518 -9.046260 19.518481 0.796270 -0.000000 0.000000 -0.000000 -1.807231 0.000005 0.000470 0.240133 -0.002408 0.010506 -16.276416 -0.512691 -0.617952 21.784306 -1.566144 -0.258523 -0.266177 0.015954 0.008371 2.410067 2.314037 -1.798994 3.198638 -0.915815 0.045266 
0.000000 0.088581 0.802864 0.612255 0.031316 2.928422 2.470459 -2.921927 0.645978 -0.000000 -0.000000 0.000000 -0.000000 0.000000 0.000000 0.000000 0.005500 0.192500 -7.070535 0.198606 -0.007265 0.018300 -0.074300 0.139400 -5.946878 -1.479352 -12.618188 0.279318 0.189649 0.011096 -12.650531 35.273385 23.719524 -0.461704 -18.674579 -3.762420 -0.018300 -0.074300 0.139400 -6.472916 1.869160 -1.044806 -0.299027 -0.004385 -0.049884 -5.273158 -32.308099 0.225136 0.018019 -1.017493 -0.031700 0.000000 0.003578 0.000518 -9.046260 19.518481 0.796270 -0.000000 0.000000 -0.000000 -1.807231 0.000005 0.000470 0.240133 -0.002408 0.010506 -18.754018 -0.391367 -0.581580 21.790347 -1.566411 -0.258562 -0.266177 0.015954 0.008371 4.813282 2.192902 -1.790843 3.198638 -0.915815 0.045266 
0.000000 0.088581 0.802864 0.612255 0.031316 2.928422 2.556779 -3.345012 1.553230 -0.000000 -0.000000 0.000000 -0.000000 0.000000 -0.000000 0.000000 0.005500 0.192500 -7.070534 0.198606 -0.007265 0.018300 -0.074300 0.139400 -5.946876 -1.479352 -12.618188 0.279318 0.189649 0.011096 -13.030678 36.618249 24.141708 -0.768402 -18.636627 -3.679291 -0.018300 -0.074300 0.139400 -6.472914 1.869159 -1.044804 -0.299027 -0.004385 -0.049884 -5.273160 -32.308106 0.225137 0.018018 -1.017503 -0.031699 0.000000 0.003578 0.000518 -9.046260 19.518481 0.796270 -0.000000 0.000000 -0.000000 -1.807231 0.000005 0.000470 0.240133 -0.002408 0.010506 -20.933056 -0.286349 -0.545181 21.794678 -1.566603 -0.258591 -0.266177 0.015954 0.008371 6.979437 2.083490 -1.778520 3.198638 -0.915815 0.045266 
0.000000 0.088581 0.802864 0.612255 0.031316 2.928422 2.662611 -3.684153 2.435727 -0.000001 0.000000 -0.000000 -0.000000 0.000000 0.000000 0.000000 0.005500 0.192500 -7.070534 0.198607 -0.007265 0.018300 -0.074300 0.139400 -5.946875 -1.479351 -12.618186 0.279318 0.189649 0.011096 -13.360618 37.886424 24.478271 -1.051462 -18.599727 -3.572577 -0.018300 -0.074300 0.139400 -6.472916 1.869160 -1.044804 -0.299027 -0.004385 -0.049884 -5.273156 -32.308096 0.225139 0.018018 -1.017502 -0.031698 0.000000 0.003578 0.000518 -9.046260 19.518481 0.796270 -0.000000 0.000000 -0.000000 -1.807231 0.000005 0.000470 0.240133 -0.002408 0.010506 -22.785629 -0.198445 -0.511037 21.797584 -1.566731 -0.258611 -0.266177 0.015954 0.008371 8.859531 1.988506 -1.763991 3.198638 -0.915815 0.045266 
0.000000 0.088581 0.802864 0.612255 0.031316 2.928422 2.784706 -3.941619 3.231561 0.000000 0.000000 -0.000000 0.000000 -0.000000 0.000000 0.000000 0.005500 0.192500 -7.070533 0.198607 -0.007265 0.018300 -0.074300 0.139400 -5.946877 -1.479352 -12.618185 0.279318 0.189649 0.011096 -13.606832 39.016974 24.683327 -1.311792 -18.563995 -3.443797 -0.018300 -0.074300 0.139400 -6.472917 1.869160 -1.044806 -0.299027 -0.004385 -0.049884 -5.273158 -32.308096 0.225136 0.018019 -1.017498 -0.031700 0.000000 0.003578 0.000518 -9.046260 19.518481 0.796270 -0.000000 0.000000 -0.000000 -1.807231 0.000005 0.000470 0.240133 -0.002408 0.010506 -24.282011 -0.128456 -0.481342 21.799338 -1.566809 -0.258623 -0.266177 0.015954 0.008371 10.405164 1.910482 -1.749355 3.198638 -0.915815 0.045266 
0.000000 0.088581 0.802864 0.612255 0.031316 2.928422 2.919602 -4.120079 3.878781 -0.000000 -0.000000 -0.000001 -0.000000 0.000000 -0.000001 0.000000 0.005500 0.192500 -7.070535 0.198606 -0.007263 0.018300 -0.074300 0.139400 -5.946876 -1.479352 -12.618185 0.279318 0.189649 0.011096 -13.732783 39.949544 24.707951 -1.550278 -18.529521 -3.294480 -0.018300 -0.074300 0.139400 -6.472917 1.869160 -1.044803 -0.299027 -0.004385 -0.049884 -5.273159 -32.308099 0.225136 0.018020 -1.017499 -0.031699 0.000000 0.003578 0.000518 -9.046260 19.518481 0.796270 -0.000000 0.000000 -0.000000 -1.807231 0.000005 0.000470 0.240133 -0.002408 0.010506 -25.390962 -0.077223 -0.458125 21.800239 -1.566849 -0.258629 -0.266177 0.015954 0.008371 11.568410 1.851820 -1.736710 3.198639 -0.915815 0.045266 
0.000000 0.088581 0.802864 0.612255 0.031316 2.928422 3.064073 -4.222631 4.315428 0.000000 0.000000 -0.000000 -0.000000 0.000000 -0.000000 0.000000 0.005500 0.192500 -7.070534 0.198605 -0.007264 0.018300 -0.074300 0.139400 -5.946878 -1.479352 -12.618189 0.279318 0.189649 0.011096 -13.701384 40.623445 24.502487 -1.767822 -18.496374 -3.126150 -0.018300 -0.074300 0.139400 -6.472918 1.869160 -1.044804 -0.299027 -0.004385 -0.049884 -5.273158 -32.308103 0.225136 0.018019 -1.017501 -0.031699 0.000000 0.003578 0.000518 -9.046260 19.518481 0.796270 -0.000000 0.000000 -0.000000 -1.807231 0.000005 0.000470 0.240133 -0.002408 0.010506 -26.080259 -0.045678 -0.443176 21.800572 -1.566863 -0.258631 -0.266177 0.015954 0.008371 12.301524 1.814864 -1.727993 3.198637 -0.915815 0.045266 
0.000000 0.088581 0.802864 0.612255 0.031316 2.928422 3.215492 -4.252794 4.479484 -0.000001 0.000000 -0.000000 -0.000000 0.000000 0.000000 0.000000 0.005500 0.192500 -7.070535 0.198606 -0.007264 0.018300 -0.074300 0.139400 -5.946877 -1.479352 -12.618189 0.279318 0.189649 0.011096 -13.478828 40.976446 24.019931 -1.965312 -18.464585 -2.940318 -0.018300 -0.074300 0.139400 -6.472918 1.869161 -1.044804 -0.299027 -0.004385 -0.049884 -5.273157 -32.308099 0.225135 0.018019 -1.017506 -0.031699 0.000000 0.003578 0.000518 -9.046260 19.518481 0.796270 -0.000000 0.000000 -0.000000 -1.807231 0.000005 0.000470 0.240133 -0.002408 0.010506 -26.317241 -0.034895 -0.437943 21.800622 -1.566865 -0.258631 -0.266177 0.015954 0.008371 12.556612 1.801998 -1.724809 3.198638 -0.915815 0.045266 
0.000000 0.088581 0.802864 0.612255 0.031316 2.928422 3.371825 -4.167635 4.364712 -0.000001 0.000001 -0.000001 -0.000000 0.000000 -0.000000 0.000000 0.005500 0.192500 -7.070534 0.198606 -0.007263 0.018300 -0.074300 0.139400 -5.946876 -1.479351 -12.618189 0.279318 0.189649 0.011096 -13.084995 41.060662 23.263768 -2.143625 -18.434151 -2.738506 -0.018300 -0.074300 0.139400 -6.472916 1.869161 -1.044801 -0.299027 -0.004385 -0.049884 -5.273156 -32.308103 0.225135 0.018019 -1.017500 -0.031699 0.000000 0.003578 0.000518 -9.046260 19.518481 0.796270 -0.000000 0.000000 -0.000000 -1.807231 0.000005 0.000470 0.240133 -0.002408 0.010506 -26.080258 -0.045678 -0.443177 21.755001 -1.564849 -0.258323 -0.266177 0.015954 0.008371 12.301524 1.814865 -1.727993 3.198637 -0.915815 0.045266 
0.000000 0.088581 0.802864 0.612255 0.031316 2.928422 3.532508 -3.933280 4.022467 -0.000000 -0.000001 -0.000001 -0.000001 -0.000000 0.000000 0.000000 0.005500 0.192500 -7.070534 0.198606 -0.007264 0.018300 -0.074300 0.139400 -5.946877 -1.479351 -12.618191 0.279318 0.189649 0.011096 -12.572133 40.979537 22.287192 -2.303647 -18.405080 -2.522225 -0.018300 -0.074300 0.139400 -6.472916 1.869160 -1.044803 -0.299027 -0.004385 -0.049884 -5.273160 -32.308106 0.225137 0.018018 -1.017503 -0.031698 0.000000 0.003578 0.000518 -9.046260 19.518481 0.796270 -0.000000 0.000000 -0.000000 -1.807231 0.000005 0.000470 0.240133 -0.002408 0.010506 -25.390960 -0.077223 -0.458125 21.622246 -1.558983 -0.257417 -0.266177 0.015954 0.008371 11.568410 1.851820 -1.736710 3.198639 -0.915815 0.045267 
0.000000 0.088581 0.802864 0.612255 0.031316 2.928422 3.698800 -3.567003 3.477022 0.000000 -0.000000 -0.000000 0.000000 -0.000000 0.000000 0.000000 0.005500 0.192500 -7.070535 0.198606 -0.007264 0.018300 -0.074300 0.139400 -5.946878 -1.479352 -12.618191 0.279318 0.189649 0.011096 -11.962036 40.745668 21.124013 -2.446252 -18.377348 -2.292985 -0.018300 -0.074300 0.139400 -6.472917 1.869161 -1.044801 -0.299027 -0.004385 -0.049884 -5.273157 -32.308099 0.225138 0.018019 -1.017499 -0.031698 0.000000 0.003578 0.000518 -9.046260 19.518481 0.796270 -0.000000 0.000000 -0.000000 -1.807231 0.000005 0.000470 0.240133 -0.002408 0.010506 -24.282012 -0.128456 -0.481342 21.408562 -1.549546 -0.255930 -0.266177 0.015954 0.008371 10.405164 1.910482 -1.749355 3.198638 -0.915815 0.045266 
0.000000 0.088581 0.802864 0.612255 0.031316 2.928422 3.872844 -3.086000 2.752712 -0.000001 -0.000001 0.000000 -0.000000 -0.000000 -0.000000 0.000000 0.005500 0.192500 -7.070534 0.198606 -0.007265 0.018300 -0.074300 0.139400 -5.946877 -1.479351 -12.618191 0.279318 0.189649 0.011096 -11.277892 40.371879 19.809285 -2.572309 -18.350903 -2.052291 -0.018300 -0.074300 0.139400 -6.472916 1.869160 -1.044804 -0.299027 -0.004385 -0.049884 -5.273157 -32.308106 0.225137 0.018019 -1.017501 -0.031698 0.000000 0.003578 0.000518 -9.046260 19.518481 0.796270 -0.000000 0.000000 -0.000000 -1.807231 0.000005 0.000470 0.240133 -0.002408 0.010506 -22.785627 -0.198445 -0.511037 21.120130 -1.536816 -0.253867 -0.266177 0.015954 0.008371 8.859531 1.988506 -1.763991 3.198637 -0.915815 0.045266 
0.000000 0.088581 0.802864 0.612255 0.031316 2.928422 4.057115 -2.507461 1.873987 0.000000 -0.000000 -0.000000 -0.000000 -0.000000 0.000000 0.000000 0.005500 0.192500 -7.070534 0.198606 -0.007265 0.018300 -0.074300 0.139400 -5.946878 -1.479352 -12.618188 0.279318 0.189649 0.011096 -10.543081 39.871762 18.378330 -2.682687 -18.325722 -1.801654 -0.018300 -0.074300 0.139400 -6.472916 1.869160 -1.044803 -0.299027 -0.004385 -0.049884 -5.273156 -32.308096 0.225136 0.018019 -1.017498 -0.031699 0.000000 0.003578 0.000518 -9.046260 19.518481 0.796270 -0.000000 0.000000 -0.000000 -1.807231 0.000005 0.000470 0.240133 -0.002408 0.010506 -20.933053 -0.286349 -0.545180 20.763095 -1.521074 -0.251225 -0.266177 0.015954 0.008371 6.979437 2.083490 -1.778521 3.198638 -0.915815 0.045266 
0.000000 0.088581 0.802864 0.612255 0.031316 2.928422 4.253938 -1.848638 0.865439 0.000000 -0.000000 0.000000 0.000000 -0.000000 0.000000 0.000000 0.005500 0.192500 -7.070534 0.198606 -0.007264 0.018300 -0.074300 0.139400 -5.946875 -1.479352 -12.618188 0.279319 0.189649 0.011096 -9.780095 39.259931 16.865706 -2.778256 -18.301717 -1.542570 -0.018300 -0.074300 0.139400 -6.472917 1.869160 -1.044801 -0.299027 -0.004385 -0.049884 -5.273158 -32.308099 0.225135 0.018019 -1.017495 -0.031700 0.000000 0.003578 0.000518 -9.046260 19.518481 0.796270 -0.000000 0.000000 -0.000000 -1.807231 0.000005 0.000470 0.240133 -0.002408 0.010506 -18.754016 -0.391367 -0.581580 20.343650 -1.502600 -0.247995 -0.266177 0.015954 0.008371 4.813281 2.192902 -1.790843 3.198638 -0.915815 0.045266 
0.000000 0.088581 0.802864 0.612255 0.031316 2.928422 4.465073 -1.126842 -0.248169 -0.000001 0.000000 -0.000000 -0.000000 0.000000 -0.000000 0.000000 0.005500 0.192500 -7.070533 0.198606 -0.007264 0.018300 -0.074300 0.139400 -5.946877 -1.479351 -12.618191 0.279318 0.189649 0.011096 -9.009657 38.552378 15.304516 -2.859882 -18.278872 -1.276547 -0.018300 -0.074300 0.139400 -6.472916 1.869160 -1.044804 -0.299027 -0.004385 -0.049884 -5.273158 -32.308099 0.225137 0.018019 -1.017499 -0.031700 0.000000 0.003578 0.000518 -9.046260 19.518481 0.796270 -0.000000 0.000000 -0.000000 -1.807231 0.000005 0.000470 0.240133 -0.002408 0.010506 -16.276406 -0.512691 -0.617952 19.867972 -1.481678 -0.244171 -0.266177 0.015954 0.008371 2.410066 2.314037 -1.798994 3.198638 -0.915815 0.045266 
0.000000 0.088581 0.802864 0.612255 0.031316 2.928422 4.691390 -0.359418 -1.441866 0.000000 -0.000000 0.000000 -0.000001 0.000000 0.000000 0.000000 0.005500 0.192500 -7.070534 0.198606 -0.007264 0.018300 -0.074300 0.139400 -5.946877 -1.479352 -12.618187 0.279318 0.189649 0.011095 -8.250041 37.766435 13.725737 -2.928427 -18.257104 -1.005082 -0.018300 -0.074300 0.139400 -6.472917 1.869161 -1.044801 -0.299027 -0.004385 -0.049884 -5.273157 -32.308099 0.225136 0.018019 -1.017503 -0.031699 0.000000 0.003578 0.000518 -9.046260 19.518481 0.796270 -0.000000 0.000000 -0.000000 -1.807231 0.000005 0.000470 0.240133 -0.002408 0.010506 -13.525930 -0.649471 -0.651981 19.342232 -1.458594 -0.239740 -0.266177 0.015954 0.008371 -0.180631 2.444001 -1.801281 3.198637 -0.915815 0.045267 
0.000000 0.088581 0.802864 0.612255 0.031316 2.928422 4.932611 0.436333 -2.690450 -0.000001 -0.000000 -0.000000 0.000000 0.000000 0.000000 0.000000 0.005500 0.192500 -7.070533 0.198606 -0.007264 0.018300 -0.074300 0.139400 -5.946875 -1.479351 -12.618188 0.279318 0.189649 0.011096 -7.516669 36.920758 12.157913 -2.984749 -18.236366 -0.729675 -0.018300 -0.074300 0.139400 -6.472916 1.869159 -1.044803 -0.299027 -0.004385 -0.049884 -5.273157 -32.308103 0.225133 0.018019 -1.017499 -0.031699 0.000000 0.003578 0.000518 -9.046260 19.518481 0.796270 -0.000000 0.000000 -0.000000 -1.807231 0.000005 0.000470 0.240133 -0.002408 0.010506 -10.525813 -0.800800 -0.681362 18.772642 -1.433629 -0.234702 -0.266177 0.015954 0.008371 -2.908847 2.579737 -1.796384 3.198637 -0.915815 0.045266 
0.000000 0.088581 0.802864 0.612255 0.031316 2.928422 5.187122 1.243274 -3.968467 -0.000000 0.000000 -0.000000 0.000000 0.000000 -0.000000 0.000000 0.005500 0.192500 -7.070534 0.198606 -0.007265 0.018300 -0.074300 0.139400 -5.946876 -1.479351 -12.618185 0.279318 0.189649 0.011096 -6.821911 36.035190 10.626997 -3.029713 -18.216598 -0.451822 -0.018300 -0.074300 0.139400 -6.472915 1.869160 -1.044803 -0.299027 -0.004385 -0.049884 -5.273158 -32.308103 0.225137 0.018019 -1.017502 -0.031698 0.000000 0.003578 0.000518 -9.046260 19.518481 0.796270 -0.000000 0.000000 -0.000000 -1.807231 0.000005 0.000470 0.240133 -0.002408 0.010506 -7.296474 -0.965693 -0.703835 18.165421 -1.407073 -0.229056 -0.266177 0.015954 0.008371 -5.724585 2.718086 -1.783453 3.198637 -0.915815 0.045266 
0.000000 0.088581 0.802864 0.612255 0.031316 2.928422 5.451884 2.044556 -5.250202 0.000000 0.000000 0.000000 -0.000000 -0.000000 -0.000000 0.000000 0.005500 0.192500 -7.070535 0.198606 -0.007264 0.018300 -0.074300 0.139400 -5.946877 -1.479352 -12.618185 0.279318 0.189649 0.011096 -6.175122 35.130532 9.156395 -3.064171 -18.197740 -0.173018 -0.018300 -0.074300 0.139400 -6.472916 1.869159 -1.044806 -0.299027 -0.004385 -0.049884 -5.273157 -32.308099 0.225136 0.018019 -1.017505 -0.031699 0.000000 0.003578 0.000518 -9.046260 19.518481 0.796270 -0.000000 0.000000 -0.000000 -1.807231 0.000005 0.000470 0.240133 -0.002408 0.010506 -3.867483 -1.141990 -0.716923 17.526812 -1.379210 -0.222817 -0.266177 0.015954 0.008371 -8.579843 2.857432 -1.763095 3.198638 -0.915815 0.045266 
0.000000 0.088581 0.802864 0.612255 0.031316 2.928422 5.722402 2.823750 -6.509673 0.000000 0.000000 -0.000000 0.000000 0.000000 -0.000000 0.000000 0.005500 0.192500 -7.070534 0.198606 -0.007265 0.018300 -0.074300 0.139400 -5.946877 -1.479353 -12.618186 0.279318 0.189649 0.011096 -5.582816 34.228301 7.767175 -3.088982 -18.179769 0.105240 -0.018300 -0.074300 0.139400 -6.472917 1.869159 -1.044804 -0.299027 -0.004385 -0.049884 -5.273156 -32.308099 0.225136 0.018018 -1.017497 -0.031699 0.000000 0.003578 0.000518 -9.046260 19.518481 0.796270 -0.000000 0.000000 -0.000000 -1.807231 0.000005 0.000470 0.240133 -0.002408 0.010506 -0.327870 -1.324148 -0.718654 16.863059 -1.350325 -0.216002 -0.266177 0.015954 0.008371 -11.419392 2.995946 -1.736447 3.198638 -0.915815 0.045266 
0.000000 0.088581 0.802864 0.612255 0.031316 2.928422 5.992793 3.564959 -7.720661 -0.000000 0.000000 0.000001 0.000000 -0.000000 0.000000 -0.000000 0.005500 0.192500 -7.070535 0.198606 -0.007264 0.018300 -0.074300 0.139400 -5.946876 -1.479352 -12.618190 0.279318 0.189649 0.011096 -5.049040 33.350451 6.478363 -3.105005 -18.162629 0.381460 -0.018300 -0.074300 0.139400 -6.472917 1.869159 -1.044801 -0.299027 -0.004385 -0.049884 -5.273158 -32.308106 0.225133 0.018020 -1.017503 -0.031698 0.000000 0.003578 0.000518 -9.046260 19.518481 0.796270 -0.000000 0.000000 -0.000000 -1.807231 0.000005 0.000470 0.240133 -0.002408 0.010506 3.212336 -1.505838 -0.708606 16.180443 -1.320702 -0.208646 -0.266177 0.015954 0.008371 -14.180638 3.130099 -1.704323 3.198641 -0.915815 0.045267 
0.000000 0.088581 0.802864 0.612255 0.031316 2.928422 6.255920 4.252886 -8.856733 -0.000000 -0.000000 0.000000 -0.000001 -0.000001 0.000000 0.000000 0.005500 0.192500 -7.070533 0.198607 -0.007264 0.018300 -0.074300 0.139400 -5.946876 -1.479352 -12.618186 0.279318 0.189649 0.011096 -4.575770 32.519183 5.307330 -3.113097 -18.146281 0.654149 -0.018300 -0.074300 0.139400 -6.472916 1.869159 -1.044804 -0.299027 -0.004385 -0.049884 -5.273157 -32.308096 0.225136 0.018018 -1.017502 -0.031699 0.000000 0.003578 0.000518 -9.046260 19.518481 0.796270 -0.000000 0.000000 -0.000000 -1.807231 0.000005 0.000470 0.240133 -0.002408 0.010506 6.640651 -1.680655 -0.687803 15.485246 -1.290626 -0.200792 -0.266177 0.015954 0.008371 -16.798557 3.256419 -1.668181 3.198639 -0.915815 0.045267 
0.000000 0.088581 0.802864 0.612255 0.031316 2.928422 6.503592 4.872849 -9.891282 0.000001 0.000000 0.000000 -0.000001 -0.000001 -0.000000 0.000000 0.005500 0.192500 -7.070533 0.198605 -0.007264 0.018300 -0.074300 0.139400 -5.946878 -1.479352 -12.618188 0.279318 0.189649 0.011096 -4.163440 31.756664 4.270222 -3.114107 -18.130718 0.921819 -0.018300 -0.074300 0.139400 -6.472917 1.869160 -1.044804 -0.299027 -0.004385 -0.049884 -5.273160 -32.308099 0.225138 0.018019 -1.017501 -0.031697 0.000000 0.003578 0.000518 -9.046260 19.518481 0.796270 -0.000000 0.000000 -0.000000 -1.807231 0.000005 0.000470 0.240133 -0.002408 0.010506 9.843771 -1.842418 -0.658653 14.783750 -1.260377 -0.192497 -0.266177 0.015954 0.008371 -19.206067 3.371564 -1.630062 3.198641 -0.915815 0.045266 
0.000000 0.088581 0.802864 0.612255 0.031316 2.928422 6.726838 5.410725 -10.797585 0.000001 -0.000001 0.000001 -0.000000 0.000000 -0.000000 0.000000 0.005500 0.192500 -7.070533 0.198607 -0.007265 0.018300 -0.074300 0.139400 -5.946876 -1.479353 -12.618185 0.279318 0.189649 0.011096 -3.811450 31.084970 3.382418 -3.108887 -18.115931 1.182979 -0.018300 -0.074300 0.139400 -6.472916 1.869160 -1.044801 -0.299027 -0.004385 -0.049884 -5.273156 -32.308106 0.225135 0.018019 -1.017502 -0.031699 0.000000 0.003578 0.000518 -9.046260 19.518481 0.796270 -0.000000 0.000000 -0.000000 -1.807231 0.000005 0.000470 0.240133 -0.002408 0.010506 12.709136 -1.985405 -0.624734 14.082270 -1.230232 -0.183832 -0.266177 0.015954 0.008371 -21.334449 3.472354 -1.592486 3.198639 -0.915815 0.045266 
0.000000 0.088581 0.802864 0.612255 0.031316 2.928422 6.916232 5.852812 -11.548863 -0.000001 -0.000000 -0.000000 0.000000 -0.000001 -0.000001 0.000000 0.005500 0.192500 -7.070534 0.198605 -0.007263 0.018300 -0.074300 0.139400 -5.946877 -1.479352 -12.618187 0.279318 0.189649 0.011096 -3.518733 30.525925 2.658971 -3.098296 -18.101895 1.436135 -0.018300 -0.074300 0.139400 -6.472916 1.869161 -1.044803 -0.299027 -0.004385 -0.049884 -5.273157 -32.308103 0.225135 0.018018 -1.017499 -0.031699 0.000000 0.003578 0.000518 -9.046260 19.518481 0.796270 -0.000000 0.000000 -0.000000 -1.807231 0.000005 0.000470 0.240133 -0.002408 0.010506 15.125923 -2.104461 -0.590445 13.387080 -1.200463 -0.174883 -0.266177 0.015954 0.008371 -23.113789 3.555795 -1.558305 3.198638 -0.915815 0.045266 
0.000000 0.088581 0.802864 0.612255 0.031316 2.928422 7.062280 6.185628 -12.118385 0.000000 0.000001 -0.000001 0.000000 -0.000001 0.000000 0.000000 0.005500 0.192500 -7.070534 0.198606 -0.007264 0.018300 -0.074300 0.139400 -5.946876 -1.479352 -12.618187 0.279318 0.189649 0.011096 -3.284369 30.101081 2.115055 -3.083180 -18.088626 1.679808 -0.018300 -0.074300 0.139400 -6.472916 1.869160 -1.044801 -0.299027 -0.004385 -0.049884 -5.273157 -32.308099 0.225137 0.018019 -1.017506 -0.031699 0.000000 0.003578 0.000518 -9.046260 19.518481 0.796270 -0.000000 0.000000 -0.000000 -1.807231 0.000005 0.000470 0.240133 -0.002408 0.010506 16.985318 -2.194945 -0.560565 12.704490 -1.171343 -0.165744 -0.266177 0.015954 0.008371 -24.473285 3.619007 -1.530507 3.198637 -0.915815 0.045267 
0.000000 0.088581 0.802864 0.612255 0.031316 2.928422 7.155844 6.395618 -12.479487 -0.000001 0.000001 -0.000001 -0.000000 0.000001 0.000000 0.000000 0.005500 0.192500 -7.070533 0.198606 -0.007265 0.018300 -0.074300 0.139400 -5.946876 -1.479352 -12.618189 0.279318 0.189649 0.011095 -3.108211 29.831664 1.766464 -3.064393 -18.076137 1.912505 -0.018300 -0.074300 0.139400 -6.472915 1.869160 -1.044799 -0.299027 -0.004385 -0.049884 -5.273159 -32.308096 0.225136 0.018019 -1.017497 -0.031699 0.000000 0.003578 0.000518 -9.046260 19.518481 0.796270 -0.000000 0.000000 -0.000000 -1.807231 0.000005 0.000470 0.240133 -0.002408 0.010506 18.179853 -2.252506 -0.539773 12.040773 -1.143133 -0.156525 -0.266177 0.015954 0.008371 -25.341569 3.659137 -1.512001 3.198637 -0.915815 0.045266 
0.000000 0.088581 0.802864 0.612255 0.031316 2.928422 7.188656 6.468836 -12.605696 -0.000001 -0.000000 -0.000000 -0.000001 0.000000 -0.000000 0.000000 0.005500 0.192500 -7.070533 0.198606 -0.007265 0.018300 -0.074300 0.139400 -5.946877 -1.479352 -12.618188 0.279318 0.189649 0.011096 -2.991576 29.738712 1.630142 -3.042787 -18.064464 2.132746 -0.018300 -0.074300 0.139400 -6.472916 1.869160 -1.044803 -0.299027 -0.004385 -0.049884 -5.273158 -32.308103 0.225137 0.018022 -1.017505 -0.031699 0.000000 0.003578 0.000518 -9.046260 19.518481 0.796270 -0.000000 0.000000 -0.000000 -1.807231 0.000005 0.000470 0.240133 -0.002408 0.010506 18.602111 -2.272738 -0.532121 11.402190 -1.116094 -0.147349 -0.266177 0.015954 0.008371 -25.646927 3.673215 -1.505357 3.198640 -0.915815 0.045266 
0.000000 0.088581 0.802864 0.612255 0.031316 2.928422 7.035920 6.290971 -12.300001 -0.000000 -0.000001 0.000001 -0.000001 0.000000 -0.000000 -0.000000 0.005500 0.192500 -7.070533 0.198606 -0.007265 0.018300 -0.074300 0.139400 -5.946876 -1.479352 -12.618188 0.279318 0.189649 0.011096 -2.913399 29.792145 1.632133 -3.019202 -18.053631 2.339048 -0.018300 -0.074300 0.139400 -6.472917 1.869160 -1.044801 -0.299027 -0.004385 -0.049884 -5.273157 -32.308106 0.225134 0.018020 -1.017496 -0.031699 0.000000 0.003578 0.000518 -9.046260 19.518481 0.796270 -0.000000 0.000000 -0.000000 -1.807231 0.000005 0.000470 0.240133 -0.002408 0.010506 17.882188 -2.238041 -0.544808 10.795012 -1.090481 -0.138344 -0.266177 0.015954 0.008371 -25.091279 3.648147 -1.517550 3.198636 -0.915815 0.045266 
0.000000 0.088581 0.802864 0.612255 0.031316 2.928422 6.626177 5.803835 -11.472659 -0.000000 0.000000 0.000001 -0.000001 -0.000000 -0.000000 0.000000 0.005500 0.192500 -7.070534 0.198606 -0.007263 0.018300 -0.074300 0.139400 -5.946877 -1.479352 -12.618185 0.279318 0.189649 0.011096 -2.849759 29.933447 1.679248 -2.994497 -18.043669 2.529920 -0.018300 -0.074300 0.139400 -6.472916 1.869161 -1.044804 -0.299027 -0.004385 -0.049884 -5.273158 -32.308096 0.225136 0.018020 -1.017502 -0.031701 0.000000 0.003578 0.000518 -9.046260 19.518481 0.796270 -0.000000 0.000000 -0.000000 -1.807231 0.000005 0.000470 0.240133 -0.002408 0.010506 15.923524 -2.142858 -0.577107 10.225469 -1.066543 -0.129652 -0.266177 0.015954 0.008371 -23.581040 3.579425 -1.549455 3.198637 -0.915815 0.045266 
0.000000 0.088581 0.802864 0.612255 0.031316 2.928422 6.035369 5.074684 -10.259905 -0.000001 -0.000000 -0.000001 -0.000000 0.000000 0.000000 0.000000 0.005500 0.192500 -7.070534 0.198607 -0.007265 0.018300 -0.074300 0.139400 -5.946876 -1.479351 -12.618187 0.279318 0.189649 0.011096 -2.799380 30.140645 1.760818 -2.969516 -18.034657 2.703886 -0.018300 -0.074300 0.139400 -6.472917 1.869160 -1.044803 -0.299027 -0.004385 -0.049884 -5.273154 -32.308099 0.225134 0.018020 -1.017504 -0.031698 0.000000 0.003578 0.000518 -9.046260 19.518481 0.796270 -0.000000 0.000000 -0.000000 -1.807231 0.000005 0.000470 0.240133 -0.002408 0.010506 13.026763 -2.000185 -0.618866 9.699776 -1.044526 -0.121418 -0.266177 0.015954 0.008371 -21.350903 3.476456 -1.593224 3.198636 -0.915815 0.045266 
0.000000 0.088581 0.802864 0.612255 0.031316 2.928422 5.339164 4.172049 -8.797879 -0.000001 -0.000001 -0.000000 -0.000000 -0.000000 -0.000000 0.000000 0.005500 0.192500 -7.070535 0.198606 -0.007264 0.018300 -0.074300 0.139400 -5.946877 -1.479352 -12.618191 0.279318 0.189649 0.011096 -2.761035 30.391726 1.866287 -2.945117 -18.026630 2.859461 -0.018300 -0.074300 0.139400 -6.472916 1.869161 -1.044801 -0.299028 -0.004385 -0.049884 -5.273156 -32.308103 0.225140 0.018018 -1.017499 -0.031698 0.000000 0.003578 0.000518 -9.046260 19.518481 0.796270 -0.000000 0.000000 -0.000000 -1.807231 0.000005 0.000470 0.240133 -0.002408 0.010506 9.497461 -1.823766 -0.659912 9.224137 -1.024671 -0.113794 -0.266177 0.015954 0.008371 -18.637763 3.348993 -1.641012 3.198638 -0.915815 0.045266 
0.000000 0.088581 0.802864 0.612255 0.031316 2.928422 4.608433 3.169561 -7.220323 -0.000001 0.000000 -0.000000 0.000000 -0.000000 0.000000 0.000000 0.005500 0.192500 -7.070535 0.198606 -0.007264 0.018300 -0.074300 0.139400 -5.946878 -1.479351 -12.618187 0.279318 0.189649 0.011096 -2.733424 30.664647 1.985091 -2.922132 -18.019646 2.995171 -0.018300 -0.074300 0.139400 -6.472917 1.869160 -1.044804 -0.299027 -0.004385 -0.049884 -5.273157 -32.308099 0.225137 0.018019 -1.017496 -0.031700 0.000000 0.003578 0.000518 -9.046260 19.518481 0.796270 -0.000000 0.000000 -0.000000 -1.807231 0.000005 0.000470 0.240133 -0.002408 0.010506 5.649316 -1.628909 -0.692192 8.804738 -1.007218 -0.106934 -0.266177 0.015954 0.008371 -15.682191 3.207718 -1.686128 3.198639 -0.915815 0.045266 
0.000000 0.088581 0.802864 0.612255 0.031316 2.928422 3.906213 2.147493 -5.657021 -0.000000 -0.000000 0.000000 0.000000 0.000000 -0.000000 0.000000 0.005500 0.192500 -7.070534 0.198606 -0.007264 0.018300 -0.074300 0.139400 -5.946877 -1.479352 -12.618189 0.279318 0.189649 0.011096 -2.715071 30.937366 2.106615 -2.901421 -18.013792 3.109530 -0.018300 -0.074300 0.139400 -6.472916 1.869161 -1.044804 -0.299027 -0.004385 -0.049884 -5.273157 -32.308099 0.225136 0.018019 -1.017501 -0.031698 0.000000 0.003578 0.000518 -9.046260 19.518481 0.796270 -0.000000 0.000000 -0.000000 -1.807231 0.000005 0.000470 0.240133 -0.002408 0.010506 1.801796 -1.432334 -0.711315 8.447756 -0.992402 -0.100996 -0.266177 0.015954 0.008371 -12.727243 3.064314 -1.723883 3.198638 -0.915815 0.045267 
0.000000 0.088581 0.802864 0.612255 0.031316 2.928422 3.286413 1.192361 -4.233162 -0.000000 0.000000 0.000000 0.000001 0.000000 -0.000000 0.000000 0.005500 0.192500 -7.070534 0.198606 -0.007264 0.018300 -0.074300 0.139400 -5.946877 -1.479351 -12.618188 0.279319 0.189649 0.011096 -2.704275 31.187829 2.220124 -2.883831 -18.009121 3.201052 -0.018300 -0.074300 0.139400 -6.472916 1.869161 -1.044803 -0.299027 -0.004385 -0.049884 -5.273157 -32.308106 0.225137 0.018019 -1.017502 -0.031698 0.000000 0.003578 0.000518 -9.046260 19.518481 0.796270 -0.000000 0.000000 -0.000000 -1.807231 0.000005 0.000470 0.240133 -0.002408 0.010506 -1.725845 -1.251326 -0.717217 8.159346 -0.980458 -0.096130 -0.266177 0.015954 0.008371 -10.015795 2.931154 -1.751972 3.198638 -0.915815 0.045266 
0.000000 0.088581 0.802864 0.612255 0.031316 2.928422 2.794505 0.395212 -3.069737 -0.000001 -0.000000 -0.000000 -0.000000 0.000000 -0.000000 0.000000 0.005500 0.192500 -7.070533 0.198606 -0.007264 0.018300 -0.074300 0.139400 -5.946876 -1.479351 -12.618185 0.279318 0.189649 0.011096 -2.699128 31.394001 2.314768 -2.870209 -18.005704 3.268269 -0.018300 -0.074300 0.139400 -6.472915 1.869160 -1.044804 -0.299027 -0.004385 -0.049884 -5.273160 -32.308103 0.225137 0.018019 -1.017500 -0.031699 0.000000 0.003578 0.000518 -9.046260 19.518481 0.796270 -0.000000 0.000000 -0.000000 -1.807231 0.000005 0.000470 0.240133 -0.002408 0.010506 -4.620468 -1.102743 -0.713730 7.945693 -0.971626 -0.092488 -0.266177 0.015954 0.008371 -7.787822 2.820829 -1.770311 3.198639 -0.915816 0.045266 
0.000000 0.088581 0.802864 0.612255 0.031316 2.928422 2.470303 -0.150768 -2.284989 0.000000 -0.000000 0.000000 -0.000000 -0.000000 -0.000000 0.000000 0.005500 0.192500 -7.070534 0.198606 -0.007264 0.018300 -0.074300 0.139400 -5.946877 -1.479351 -12.618189 0.279318 0.189649 0.011096 -2.697574 31.533850 2.379604 -2.861410 -18.003605 3.309682 -0.018300 -0.074300 0.139400 -6.472916 1.869160 -1.044803 -0.299027 -0.004385 -0.049884 -5.273157 -32.308103 0.225136 0.018019 -1.017492 -0.031699 0.000000 0.003578 0.000518 -9.046260 19.518481 0.796270 -0.000000 0.000000 -0.000000 -1.807231 0.000005 0.000470 0.240133 -0.002408 0.010506 -6.577308 -1.002478 -0.707123 7.812957 -0.966146 -0.090208 -0.266177 0.015954 0.008371 -6.279468 2.745765 -1.780283 3.198639 -0.915815 0.045267 
0.000000 0.088581 0.802864 0.612255 0.031316 2.928422 2.352821 -0.352898 -1.996830 -0.000001 0.000000 -0.000000 -0.000000 0.000000 -0.000000 0.000000 0.005500 0.192500 -7.070534 0.198606 -0.007264 0.018300 -0.074300 0.139400 -5.946876 -1.479351 -12.618188 0.279318 0.189649 0.011096 -2.697503 31.585353 2.403655 -2.858288 -18.002897 3.323817 -0.018300 -0.074300 0.139400 -6.472917 1.869160 -1.044804 -0.299027 -0.004385 -0.049884 -5.273156 -32.308099 0.225138 0.018019 -1.017505 -0.031699 0.000000 0.003578 0.000518 -9.046260 19.518481 0.796270 -0.000000 0.000000 -0.000000 -1.807231 0.000005 0.000470 0.240133 -0.002408 0.010506 -7.296474 -0.965693 -0.703835 7.767336 -0.964264 -0.089421 -0.266177 0.015954 0.008371 -5.724585 2.718086 -1.783453 3.198637 -0.915815 0.045266 
0.000000 0.088581 0.802864 0.612255 0.031316 2.928422 2.352821 -0.352898 -1.996830 -0.000001 0.000000 -0.000000 -0.000000 0.000000 -0.000000 0.000000 0.005500 0.192500 -7.070534 0.198606 -0.007264 0.018300 -0.074300 0.139400 -5.946876 -1.479351 -12.618188 0.279318 0.189649 0.011096 -2.697503 31.585353 2.403655 -2.858288 -18.002897 3.323817 -0.018300 -0.074300 0.139400 -6.472917 1.869160 -1.044804 -0.299027 -0.004385 -0.049884 -5.273156 -32.308099 0.225138 0.018019 -1.017505 -0.031699 0.000000 0.003578 0.000518 -9.046260 19.518481 0.796270 -0.000000 0.000000 -0.000000 -1.807231 0.000005 0.000470 0.240133 -0.002408 0.010506 -7.296474 -0.965693 -0.703835 7.767336 -0.964264 -0.089421 -0.266177 0.015954 0.008371 -5.724585 2.718086 -1.783453 3.198637 -0.915815 0.045266 
0.000000 0.088581 0.802864 0.612255 0.031316 2.928422 2.352821 -0.352898 -1.996830 -0.000001 0.000000 -0.000000 -0.000000 0.000000 -0.000000 0.000000 0.005500 0.192500 -7.070534 0.198606 -0.007264 0.018300 -0.074300 0.139400 -5.946876 -1.479351 -12.618188 0.279318 0.189649 0.011096 -2.697503 31.585353 2.403655 -2.858288 -18.002897 3.323817 -0.018300 -0.074300 0.139400 -6.472917 1.869160 -1.044804 -0.299027 -0.004385 -0.049884 -5.273156 -32.308099 0.225138 0.018019 -1.017505 -0.031699 0.000000 0.003578 0.000518 -9.046260 19.518481 0.796270 -0.000000 0.000000 -0.000000 -1.807231 0.000005 0.000470 0.240133 -0.002408 0.010506 -7.296474 -0.965693 -0.703835 7.767336 -0.964264 -0.089421 -0.266177 0.015954 0.008371 -5.724585 2.718086 -1.783453 3.198637 -0.915815 0.045266 
0.000000 0.088581 0.802864 0.612255 0.031316 2.928422 2.352821 -0.352898 -1.996830 -0.000001 0.000000 -0.000000 -0.000000 0.000000 -0.000000 0.000000 0.005500 0.192500 -7.070534 0.198606 -0.007264 0.018300 -0.074300 0.139400 -5.946876 -1.479351 -12.618188 0.279318 0.189649 0.011096 -2.697503 31.585353 2.403655 -2.858288 -18.002897 3.323817 -0.018300 -0.074300 0.139400 -6.472917 1.869160 -1.044804 -0.299027 -0.004385 -0.049884 -5.273156 -32.308099 0.225138 0.018019 -1.017505 -0.031699 0.000000 0.003578 0.000518 -9.046260 19.518481 0.796270 -0.000000 0.000000 -0.000000 -1.807231 0.000005 0.000470 0.240133 -0.002408 0.010506 -7.296474 -0.965693 -0.703835 7.767336 -0.964264 -0.089421 -0.266177 0.015954 0.008371 -5.724585 2.718086 -1.783453 3.198637 -0.915815 0.045266 
0.000000 0.088581 0.802864 0.612255 0.031316 2.928422 2.352821 -0.352898 -1.996830 -0.000001 0.000000 -0.000000 -0.000000 0.000000 -0.000000 0.000000 0.005500 0.192500 -7.070534 0.198606 -0.007264 0.018300 -0.074300 0.139400 -5.946876 -1.479351 -12.618188 0.279318 0.189649 0.011096 -2.697503 31.585353 2.403655 -2.858288 -18.002897 3.323817 -0.018300 -0.074300 0.139400 -6.472917 1.869160 -1.044804 -0.299027 -0.004385 -0.049884 -5.273156 -32.308099 0.225138 0.018019 -1.017505 -0.031699 0.000000 0.003578 0.000518 -9.046260 19.518481 0.796270 -0.000000 0.000000 -0.000000 -1.807231 0.000005 0.000470 0.240133 -0.002408 0.010506 -7.296474 -0.965693 -0.703835 7.767336 -0.964264 -0.089421 -0.266177 0.015954 0.008371 -5.724585 2.718086 -1.783453 3.198637 -0.915815 0.045266 
0.000000 0.088581 0.802864 0.612255 0.031316 2.928422 2.352821 -0.352898 -1.996830 -0.000001 0.000000 -0.000000 -0.000000 0.000000 -0.000000 0.000000 0.005500 0.192500 -7.070534 0.198606 -0.007264 0.018300 -0.074300 0.139400 -5.946876 -1.479351 -12.618188 0.279318 0.189649 0.011096 -2.697503 31.585353 2.403655 -2.858288 -18.002897 3.323817 -0.018300 -0.074300 0.139400 -6.472917 1.869160 -1.044804 -0.299027 -0.004385 -0.049884 -5.273156 -32.308099 0.225138 0.018019 -1.017505 -0.031699 0.000000 0.003578 0.000518 -9.046260 19.518481 0.796270 -0.000000 0.000000 -0.000000 -1.807231 0.000005 0.000470 0.240133 -0.002408 0.010506 -7.296474 -0.965693 -0.703835 7.767336 -0.964264 -0.089421 -0.266177 0.015954 0.008371 -5.724585 2.718086 -1.783453 3.198637 -0.915815 0.045266 
0.000000 0.088581 0.802864 0.612255 0.031316 2.928422 2.352821 -0.352898 -1.996830 -0.000001 0.000000 -0.000000 -0.000000 0.000000 -0.000000 0.000000 0.005500 0.192500 -7.070534 0.198606 -0.007264 0.018300 -0.074300 0.139400 -5.946876 -1.479351 -12.618188 0.279318 0.189649 0.011096 -2.697503 31.585353 2.403655 -2.858288 -18.002897 3.323817 -0.018300 -0.074300 0.139400 -6.472917 1.869160 -1.044804 -0.299027 -0.004385 -0.049884 -5.273156 -32.308099 0.225138 0.018019 -1.017505 -0.031699 0.000000 0.003578 0.000518 -9.046260 19.518481 0.796270 -0.000000 0.000000 -0.000000 -1.807231 0.000005 0.000470 0.240133 -0.002408 0.010506 -7.296474 -0.965693 -0.703835 7.767336 -0.964264 -0.089421 -0.266177 0.015954 0.008371 -5.724585 2.718086 -1.783453 3.198637 -0.915815 0.045266 
0.000000 0.088581 0.802864 0.612255 0.031316 2.928422 2.352821 -0.352898 -1.996830 -0.000001 0.000000 -0.000000 -0.000000 0.000000 -0.000000 0.000000 0.005500 0.192500 -7.070534 0.198606 -0.007264 0.018300 -0.074300 0.139400 -5.946876 -1.479351 -12.618188 0.279318 0.189649 0.011096 -2.697503 31.585353 2.403655 -2.858288 -18.002897 3.323817 -0.018300 -0.074300 0.139400 -6.472917 1.869160 -1.044804 -0.299027 -0.004385 -0.049884 -5.273156 -32.308099 0.225138 0.018019 -1.017505 -0.031699 0.000000 0.003578 0.000518 -9.046260 19.518481 0.796270 -0.000000 0.000000 -0.000000 -1.807231 0.000005 0.000470 0.240133 -0.002408 0.010506 -7.296474 -0.965693 -0.703835 7.767336 -0.964264 -0.089421 -0.266177 0.015954 0.008371 -5.724585 2.718086 -1.783453 3.198637 -0.915815 0.045266 
0.000000 0.088581 0.802864 0.612255 0.031316 2.928422 2.352821 -0.352898 -1.996830 -0.000001 0.000000 -0.000000 -0.000000 0.000000 -0.000000 0.000000 0.005500 0.192500 -7.070534 0.198606 -0.007264 0.018300 -0.074300 0.139400 -5.946876 -1.479351 -12.618188 0.279318 0.189649 0.011096 -2.697503 31.585353 2.403655 -2.858288 -18.002897 3.323817 -0.018300 -0.074300 0.139400 -6.472917 1.869160 -1.044804 -0.299027 -0.004385 -0.049884 -5.273156 -32.308099 0.225138 0.018019 -1.017505 -0.031699 0.000000 0.003578 0.000518 -9.046260 19.518481 0.796270 -0.000000 0.000000 -0.000000 -1.807231 0.000005 0.000470 0.240133 -0.002408 0.010506 -7.296474 -0.965693 -0.703835 7.767336 -0.964264 -0.089421 -0.266177 0.015954 0.008371 -5.724585 2.718086 -1.783453 3.198637 -0.915815 0.045266 
0.000000 0.088581 0.802864 0.612255 0.031316 2.928422 2.352821 -0.352898 -1.996830 -0.000001 0.000000 -0.000000 -0.000000 0.000000 -0.000000 0.000000 0.005500 0.192500 -7.070534 0.198606 -0.007264 0.018300 -0.074300 0.139400 -5.946876 -1.479351 -12.618188 0.279318 0.189649 0.011096 -2.697503 31.585353 2.403655 -2.858288 -18.002897 3.323817 -0.018300 -0.074300 0.139400 -6.472917 1.869160 -1.044804 -0.299027 -0.004385 -0.049884 -5.273156 -32.308099 0.225138 0.018019 -1.017505 -0.031699 0.000000 0.003578 0.000518 -9.046260 19.518481 0.796270 -0.000000 0.000000 -0.000000 -1.807231 0.000005 0.000470 0.240133 -0.002408 0.010506 -7.296474 -0.965693 -0.703835 7.767336 -0.964264 -0.089421 -0.266177 0.015954 0.008371 -5.724585 2.718086 -1.783453 3.198637 -0.915815 0.045266 
0.000000 0.088581 0.802864 0.612255 0.031316 2.928422 2.352821 -0.352898 -1.996830 -0.000001 0.000000 -0.000000 -0.000000 0.000000 -0.000000 0.000000 0.005500 0.192500 -7.070534 0.198606 -0.007264 0.018300 -0.074300 0.139400 -5.946876 -1.479351 -12.618188 0.279318 0.189649 0.011096 -2.697503 31.585353 2.403655 -2.858288 -18.002897 3.323817 -0.018300 -0.074300 0.139400 -6.472917 1.869160 -1.044804 -0.299027 -0.004385 -0.049884 -5.273156 -32.308099 0.225138 0.018019 -1.017505 -0.031699 0.000000 0.003578 0.000518 -9.046260 19.518481 0.796270 -0.000000 0.000000 -0.000000 -1.807231 0.000005 0.000470 0.240133 -0.002408 0.010506 -7.296474 -0.965693 -0.703835 7.767336 -0.964264 -0.089421 -0.266177 0.015954 0.008371 -5.724585 2.718086 -1.783453 3.198637 -0.915815 0.045266 
0.000000 0.088581 0.802864 0.612255 0.031316 2.928422 2.352821 -0.352898 -1.996830 -0.000001 0.000000 -0.000000 -0.000000 0.000000 -0.000000 0.000000 0.005500 0.192500 -7.070534 0.198606 -0.007264 0.018300 -0.074300 0.139400 -5.946876 -1.479351 -12.618188 0.279318 0.189649 0.011096 -2.697503 31.585353 2.403655 -2.858288 -18.002897 3.323817 -0.018300 -0.074300 0.139400 -6.472917 1.869160 -1.044804 -0.299027 -0.004385 -0.049884 -5.273156 -32.308099 0.225138 0.018019 -1.017505 -0.031699 0.000000 0.003578 0.000518 -9.046260 19.518481 0.796270 -0.000000 0.000000 -0.000000 -1.807231 0.000005 0.000470 0.240133 -0.002408 0.010506 -7.296474 -0.965693 -0.703835 7.767336 -0.964264 -0.089421 -0.266177 0.015954 0.008371 -5.724585 2.718086 -1.783453 3.198637 -0.915815 0.045266 
0.000000 0.088581 0.802864 0.612255 0.031316 2.928422 2.352821 -0.352898 -1.996830 -0.000001 0.000000 -0.000000 -0.000000 0.000000 -0.000000 0.000000 0.005500 0.192500 -7.070534 0.198606 -0.007264 0.018300 -0.074300 0.139400 -5.946876 -1.479351 -12.618188 0.279318 0.189649 0.011096 -2.697503 31.585353 2.403655 -2.858288 -18.002897 3.323817 -0.018300 -0.074300 0.139400 -6.472917 1.869160 -1.044804 -0.299027 -0.004385 -0.049884 -5.273156 -32.308099 0.225138 0.018019 -1.017505 -0.031699 0.000000 0.003578 0.000518 -9.046260 19.518481 0.796270 -0.000000 0.000000 -0.000000 -1.807231 0.000005 0.000470 0.240133 -0.002408 0.010506 -7.296474 -0.965693 -0.703835 7.767336 -0.964264 -0.089421 -0.266177 0.015954 0.008371 -5.724585 2.718086 -1.783453 3.198637 -0.915815 0.045266 
0.000000 0.088581 0.802864 0.612255 0.031316 2.928422 2.352821 -0.352898 -1.996830 -0.000001 0.000000 -0.000000 -0.000000 0.000000 -0.000000 0.000000 0.005500 0.192500 -7.070534 0.198606 -0.007264 0.018300 -0.074300 0.139400 -5.946876 -1.479351 -12.618188 0.279318 0.189649 0.011096 -2.697503 31.585353 2.403655 -2.858288 -18.002897 3.323817 -0.018300 -0.074300 0.139400 -6.472917 1.869160 -1.044804 -0.299027 -0.004385 -0.049884 -5.273156 -32.308099 0.225138 0.018019 -1.017505 -0.031699 0.000000 0.003578 0.000518 -9.046260 19.518481 0.796270 -0.000000 0.000000 -0.000000 -1.807231 0.000005 0.000470 0.240133 -0.002408 0.010506 -7.296474 -0.965693 -0.703835 7.767336 -0.964264 -0.089421 -0.266177 0.015954 0.008371 -5.724585 2.718086 -1.783453 3.198637 -0.915815 0.045266 
0.000000 0.088581 0.802864 0.612255 0.031316 2.928422 2.352821 -0.352898 -1.996830 -0.000001 0.000000 -0.000000 -0.000000 0.000000 -0.000000 0.000000 0.005500 0.192500 -7.070534 0.198606 -0.007264 0.018300 -0.074300 0.139400 -5.946876 -1.479351 -12.618188 0.279318 0.189649 0.011096 -2.697503 31.585353 2.403655 -2.858288 -18.002897 3.323817 -0.018300 -0.074300 0.139400 -6.472917 1.869160 -1.044804 -0.299027 -0.004385 -0.049884 -5.273156 -32.308099 0.225138 0.018019 -1.017505 -0.031699 0.000000 0.003578 0.000518 -9.046260 19.518481 0.796270 -0.000000 0.000000 -0.000000 -1.807231 0.000005 0.000470 0.240133 -0.002408 0.010506 -7.296474 -0.965693 -0.703835 7.767336 -0.964264 -0.089421 -0.266177 0.015954 0.008371 -5.724585 2.718086 -1.783453 3.198637 -0.915815 0.045266 
0.000000 0.088581 0.802864 0.612255 0.031316 2.928422 2.352821 -0.352898 -1.996830 -0.000001 0.000000 -0.000000 -0.000000 0.000000 -0.000000 0.000000 0.005500 0.192500 -7.070534 0.198606 -0.007264 0.018300 -0.074300 0.139400 -5.946876 -1.479351 -12.618188 0.279318 0.189649 0.011096 -2.697503 31.585353 2.403655 -2.858288 -18.002897 3.323817 -0.018300 -0.074300 0.139400 -6.472917 1.869160 -1.044804 -0.299027 -0.004385 -0.049884 -5.273156 -32.308099 0.225138 0.018019 -1.017505 -0.031699 0.000000 0.003578 0.000518 -9.046260 19.518481 0.796270 -0.000000 0.000000 -0.000000 -1.807231 0.000005 0.000470 0.240133 -0.002408 0.010506 -7.296474 -0.965693 -0.703835 7.767336 -0.964264 -0.089421 -0.266177 0.015954 0.008371 -5.724585 2.718086 -1.783453 3.198637 -0.915815 0.045266 
0.000000 0.088581 0.802864 0.612255 0.031316 2.928422 2.352821 -0.352898 -1.996830 -0.000001 0.000000 -0.000000 -0.000000 0.000000 -0.000000 0.000000 0.005500 0.192500 -7.070534 0.198606 -0.007264 0.018300 -0.074300 0.139400 -5.946876 -1.479351 -12.618188 0.279318 0.189649 0.011096 -2.697503 31.585353 2.403655 -2.858288 -18.002897 3.323817 -0.018300 -0.074300 0.139400 -6.472917 1.869160 -1.044804 -0.299027 -0.004385 -0.049884 -5.273156 -32.308099 0.225138 0.018019 -1.017505 -0.031699 0.000000 0.003578 0.000518 -9.046260 19.518481 0.796270 -0.000000 0.000000 -0.000000 -1.807231 0.000005 0.000470 0.240133 -0.002408 0.010506 -7.296474 -0.965693 -0.703835 7.767336 -0.964264 -0.089421 -0.266177 0.015954 0.008371 -5.724585 2.718086 -1.783453 3.198637 -0.915815 0.045266 
0.000000 0.088581 0.802864 0.612255 0.031316 2.928422 2.352821 -0.352898 -1.996830 -0.000001 0.000000 -0.000000 -0.000000 0.000000 -0.000000 0.000000 0.005500 0.192500 -7.070534 0.198606 -0.007264 0.018300 -0.074300 0.139400 -5.946876 -1.479351 -12.618188 0.279318 0.189649 0.011096 -2.697503 31.585353 2.403655 -2.858288 -18.002897 3.323817 -0.018300 -0.074300 0.139400 -6.472917 1.869160 -1.044804 -0.299027 -0.004385 -0.049884 -5.273156 -32.308099 0.225138 0.018019 -1.017505 -0.031699 0.000000 0.003578 0.000518 -9.046260 19.518481 0.796270 -0.000000 0.000000 -0.000000 -1.807231 0.000005 0.000470 0.240133 -0.002408 0.010506 -7.296474 -0.965693 -0.703835 7.767336 -0.964264 -0.089421 -0.266177 0.015954 0.008371 -5.724585 2.718086 -1.783453 3.198637 -0.915815 0.045266 
0.000000 0.088581 0.802864 0.612255 0.031316 2.928422 2.352821 -0.352898 -1.996830 -0.000001 0.000000 -0.000000 -0.000000 0.000000 -0.000000 0.000000 0.005500 0.192500 -7.070534 0.198606 -0.007264 0.018300 -0.074300 0.139400 -5.946876 -1.479351 -12.618188 0.279318 0.189649 0.011096 -2.697503 31.585353 2.403655 -2.858288 -18.002897 3.323817 -0.018300 -0.074300 0.139400 -6.472917 1.869160 -1.044804 -0.299027 -0.004385 -0.049884 -5.273156 -32.308099 0.225138 0.018019 -1.017505 -0.031699 0.000000 0.003578 0.000518 -9.046260 19.518481 0.796270 -0.000000 0.000000 -0.000000 -1.807231 0.000005 0.000470 0.240133 -0.002408 0.010506 -7.296474 -0.965693 -0.703835 7.767336 -0.964264 -0.089421 -0.266177 0.015954 0.008371 -5.724585 2.718086 -1.783453 3.198637 -0.915815 0.045266 
0.000000 0.088581 0.802864 0.612255 0.031316 2.928422 2.352821 -0.352898 -1.996830 -0.000001 0.000000 -0.000000 -0.000000 0.000000 -0.000000 0.000000 0.005500 0.192500 -7.070534 0.198606 -0.007264 0.018300 -0.074300 0.139400 -5.946876 -1.479351 -12.618188 0.279318 0.189649 0.011096 -2.697503 31.585353 2.403655 -2.858288 -18.002897 3.323817 -0.018300 -0.074300 0.139400 -6.472917 1.869160 -1.044804 -0.299027 -0.004385 -0.049884 -5.273156 -32.308099 0.225138 0.018019 -1.017505 -0.031699 0.000000 0.003578 0.000518 -9.046260 19.518481 0.796270 -0.000000 0.000000 -0.000000 -1.807231 0.000005 0.000470 0.240133 -0.002408 0.010506 -7.296474 -0.965693 -0.703835 7.767336 -0.964264 -0.089421 -0.266177 0.015954 0.008371 -5.724585 2.718086 -1.783453 3.198637 -0.915815 0.045266 
0.000000 0.088581 0.802864 0.612255 0.031316 2.928422 2.352821 -0.352898 -1.996830 -0.000001 0.000000 -0.000000 -0.000000 0.000000 -0.000000 0.000000 0.005500 0.192500 -7.070534 0.198606 -0.007264 0.018300 -0.074300 0.139400 -5.946876 -1.479351 -12.618188 0.279318 0.189649 0.011096 -2.697503 31.585353 2.403655 -2.858288 -18.002897 3.323817 -0.018300 -0.074300 0.139400 -6.472917 1.869160 -1.044804 -0.299027 -0.004385 -0.049884 -5.273156 -32.308099 0.225138 0.018019 -1.017505 -0.031699 0.000000 0.003578 0.000518 -9.046260 19.518481 0.796270 -0.000000 0.000000 -0.000000 -1.807231 0.000005 0.000470 0.240133 -0.002408 0.010506 -7.296474 -0.965693 -0.703835 7.767336 -0.964264 -0.089421 -0.266177 0.015954 0.008371 -5.724585 2.718086 -1.783453 3.198637 -0.915815 0.045266 
